{
"type": "FeatureCollection",
"name": "buildings",
"crs": { "type": "name", "properties": { "name": "urn:ogc:def:crs:OGC:1.3:CRS84" } },
"features": [
{ "type": "Feature", "properties": { "id": "BLD_0001", "class": "building", "confidence": 0.999, "area_sqm": 851.64, "perimeter_m": 116.8, "length_m": 30.2, "width_m": 28.2 }, "geometry": { "type": "Polygon", "coordinates": [ [ [ 76.357876230184985, 18.531377149570428 ], [ 76.357876230184985, 18.531119924679519 ], [ 76.358129555095104, 18.531119924679519 ], [ 76.358129555095104, 18.531377149570428 ], [ 76.357876230184985, 18.531377149570428 ] ] ] } },
{ "type": "Feature", "properties": { "id": "BLD_0002", "class": "building", "confidence": 1.0, "area_sqm": 738.84, "perimeter_m": 108.8, "length_m": 28.2, "width_m": 26.2 }, "geometry": { "type": "Polygon", "coordinates": [ [ [ 76.358253522604315, 18.531411219063372 ], [ 76.358253522604315, 18.531171028993295 ], [ 76.358488881208743, 18.531171028993295 ], [ 76.358488881208743, 18.531411219063372 ], [ 76.358253522604315, 18.531411219063372 ] ] ] } },
{ "type": "Feature", "properties": { "id": "BLD_0003", "class": "building", "confidence": 1.0, "area_sqm": 851.64, "perimeter_m": 116.8, "length_m": 30.2, "width_m": 28.2 }, "geometry": { "type": "Polygon", "coordinates": [ [ [ 76.357337241014505, 18.531411219063372 ], [ 76.357337241014505, 18.53115399422374 ], [ 76.357590565924625, 18.53115399422374 ], [ 76.357590565924625, 18.531411219063372 ], [ 76.357337241014505, 18.531411219063372 ] ] ] } },
{ "type": "Feature", "properties": { "id": "BLD_0004", "class": "building", "confidence": 0.999, "area_sqm": 908.04, "perimeter_m": 120.8, "length_m": 32.2, "width_m": 28.2 }, "geometry": { "type": "Polygon", "coordinates": [ [ [ 76.35695994859519, 18.531445288549527 ], [ 76.35695994859519, 18.531171028993295 ], [ 76.357213273505295, 18.531171028993295 ], [ 76.357213273505295, 18.531445288549527 ], [ 76.35695994859519, 18.531445288549527 ] ] ] } },
{ "type": "Feature", "properties": { "id": "BLD_0005", "class": "building", "confidence": 1.0, "area_sqm": 851.64, "perimeter_m": 116.8, "length_m": 30.2, "width_m": 28.2 }, "geometry": { "type": "Polygon", "coordinates": [ [ [ 76.358235556298638, 18.531717844194279 ], [ 76.358235556298638, 18.531477654555079 ], [ 76.358506847514434, 18.531477654555079 ], [ 76.358506847514434, 18.531717844194279 ], [ 76.358235556298638, 18.531717844194279 ] ] ] } },
{ "type": "Feature", "properties": { "id": "BLD_0006", "class": "building", "confidence": 1.0, "area_sqm": 851.64, "perimeter_m": 116.8, "length_m": 30.2, "width_m": 28.2 }, "geometry": { "type": "Polygon", "coordinates": [ [ [ 76.357319274708829, 18.531734878907645 ], [ 76.357319274708829, 18.531477654555079 ], [ 76.357572599618948, 18.531477654555079 ], [ 76.357572599618948, 18.531734878907645 ], [ 76.357319274708829, 18.531734878907645 ] ] ] } },
{ "type": "Feature", "properties": { "id": "BLD_0007", "class": "building", "confidence": 1.0, "area_sqm": 1169.64, "perimeter_m": 136.8, "length_m": 34.2, "width_m": 34.2 }, "geometry": { "type": "Polygon", "coordinates": [ [ [ 76.357858263879294, 18.531751913619313 ], [ 76.357858263879294, 18.531460619816077 ], [ 76.358165487706458, 18.531460619816077 ], [ 76.358165487706458, 18.531751913619313 ], [ 76.357858263879294, 18.531751913619313 ] ] ] } },
{ "type": "Feature", "properties": { "id": "BLD_0008", "class": "building", "confidence": 1.0, "area_sqm": 851.64, "perimeter_m": 116.8, "length_m": 30.2, "width_m": 28.2 }, "geometry": { "type": "Polygon", "coordinates": [ [ [ 76.356977914900867, 18.531751913619313 ], [ 76.356977914900867, 18.53151172402799 ], [ 76.357249206116663, 18.53151172402799 ], [ 76.357249206116663, 18.531751913619313 ], [ 76.356977914900867, 18.531751913619313 ] ] ] } },
{ "type": "Feature", "properties": { "id": "BLD_0009", "class": "building", "confidence": 1.0, "area_sqm": 670.44, "perimeter_m": 104.8, "length_m": 30.2, "width_m": 22.2 }, "geometry": { "type": "Polygon", "coordinates": [ [ [ 76.357876230184985, 18.532177780859275 ], [ 76.357876230184985, 18.531988695935702 ], [ 76.358147521400781, 18.531988695935702 ], [ 76.358147521400781, 18.532177780859275 ], [ 76.357876230184985, 18.532177780859275 ] ] ] } },
{ "type": "Feature", "properties": { "id": "BLD_0010", "class": "building", "confidence": 1.0, "area_sqm": 779.24, "perimeter_m": 112.8, "length_m": 32.2, "width_m": 24.2 }, "geometry": { "type": "Polygon", "coordinates": [ [ [ 76.35728334209746, 18.532211850192631 ], [ 76.35728334209746, 18.532005730622078 ], [ 76.357572599618948, 18.532005730622078 ], [ 76.357572599618948, 18.532211850192631 ], [ 76.35728334209746, 18.532211850192631 ] ] ] } },
{ "type": "Feature", "properties": { "id": "BLD_0011", "class": "building", "confidence": 1.0, "area_sqm": 569.64, "perimeter_m": 96.8, "length_m": 28.2, "width_m": 20.2 }, "geometry": { "type": "Polygon", "coordinates": [ [ [ 76.356924015983807, 18.532262954179938 ], [ 76.356924015983807, 18.532022765306753 ], [ 76.357105475671204, 18.532022765306753 ], [ 76.357105475671204, 18.532262954179938 ], [ 76.356924015983807, 18.532262954179938 ] ] ] } },
{ "type": "Feature", "properties": { "id": "BLD_0012", "class": "building", "confidence": 0.999, "area_sqm": 908.04, "perimeter_m": 120.8, "length_m": 32.2, "width_m": 28.2 }, "geometry": { "type": "Polygon", "coordinates": [ [ [ 76.357840297573617, 18.53253550852083 ], [ 76.357840297573617, 18.532261250713937 ], [ 76.358093622483736, 18.532261250713937 ], [ 76.358093622483736, 18.53253550852083 ], [ 76.357840297573617, 18.53253550852083 ] ] ] } },
{ "type": "Feature", "properties": { "id": "BLD_0013", "class": "building", "confidence": 0.999, "area_sqm": 908.04, "perimeter_m": 120.8, "length_m": 32.2, "width_m": 28.2 }, "geometry": { "type": "Polygon", "coordinates": [ [ [ 76.357265375791783, 18.53253550852083 ], [ 76.357265375791783, 18.532295320030656 ], [ 76.357554633313256, 18.532295320030656 ], [ 76.357554633313256, 18.53253550852083 ], [ 76.357265375791783, 18.53253550852083 ] ] ] } },
{ "type": "Feature", "properties": { "id": "BLD_0014", "class": "building", "confidence": 1.0, "area_sqm": 488.84, "perimeter_m": 88.8, "length_m": 24.2, "width_m": 20.2 }, "geometry": { "type": "Polygon", "coordinates": [ [ [ 76.356941982289499, 18.53256957778288 ], [ 76.356941982289499, 18.532363458643726 ], [ 76.357123441976881, 18.532363458643726 ], [ 76.357123441976881, 18.53256957778288 ], [ 76.356941982289499, 18.53256957778288 ] ] ] } },
{ "type": "Feature", "properties": { "id": "BLD_0015", "class": "building", "confidence": 0.995, "area_sqm": 5159.92, "perimeter_m": 1008.8, "length_m": 193.46, "width_m": 153.87 }, "geometry": { "type": "Polygon", "coordinates": [ [ [ 76.357157577957693, 18.532738220530028 ], [ 76.357157577957679, 18.531923964111996 ], [ 76.356800048474568, 18.531922260642627 ], [ 76.356800048474582, 18.531835383681955 ], [ 76.357658837886191, 18.531835383681944 ], [ 76.357660634516776, 18.530995570785514 ], [ 76.357777415503691, 18.530995570785496 ], [ 76.357777415503719, 18.531833680211694 ], [ 76.358638001545913, 18.531835383681944 ], [ 76.358638001545899, 18.531922260642627 ], [ 76.357779212134275, 18.531922260642627 ], [ 76.357777415503719, 18.532738220530028 ], [ 76.357660634516776, 18.532738220530021 ], [ 76.357660634516776, 18.531923964112003 ], [ 76.357206086983012, 18.531922260642634 ], [ 76.357204290352442, 18.532738220530021 ], [ 76.357157577957693, 18.532738220530028 ] ] ] } }
]
}
