{
"type": "FeatureCollection",
"name": "land_use",
"crs": { "type": "name", "properties": { "name": "urn:ogc:def:crs:OGC:1.3:CRS84" } },
"features": [
{ "type": "Feature", "properties": { "id": "LU_0006", "class": "Building / Built-up", "confidence": 0.85, "area_sqm": 479.56, "perimeter_m": 90.4 }, "geometry": { "type": "Polygon", "coordinates": [ [ [ 76.356944677235347, 18.532568726051409 ], [ 76.356944677235347, 18.532567022588459 ], [ 76.356942880604777, 18.532567022588459 ], [ 76.356942880604777, 18.532366013841184 ], [ 76.356944677235347, 18.532366013841184 ], [ 76.356944677235347, 18.532364310376213 ], [ 76.357108170617067, 18.532364310376213 ], [ 76.357108170617067, 18.532366013841184 ], [ 76.357109967247624, 18.532366013841184 ], [ 76.357109967247624, 18.532364310376213 ], [ 76.357120747031047, 18.532364310376213 ], [ 76.357120747031047, 18.532366013841184 ], [ 76.357122543661603, 18.532366013841184 ], [ 76.357122543661603, 18.53250910483807 ], [ 76.357120747031047, 18.53250910483807 ], [ 76.357120747031047, 18.532510808301595 ], [ 76.357122543661603, 18.532510808301595 ], [ 76.357122543661603, 18.532567022588459 ], [ 76.357120747031047, 18.532567022588459 ], [ 76.357120747031047, 18.532568726051409 ], [ 76.357095594203074, 18.532568726051409 ], [ 76.357095594203074, 18.532567022588459 ], [ 76.357093797572517, 18.532567022588459 ], [ 76.357093797572517, 18.532568726051409 ], [ 76.357025525610908, 18.532568726051409 ], [ 76.357025525610908, 18.532567022588459 ], [ 76.357021932349781, 18.532567022588459 ], [ 76.357021932349781, 18.532568726051409 ], [ 76.356955457018771, 18.532568726051409 ], [ 76.356955457018771, 18.532567022588459 ], [ 76.356953660388186, 18.532567022588459 ], [ 76.356953660388186, 18.532568726051409 ], [ 76.356951863757629, 18.532568726051409 ], [ 76.356951863757629, 18.532567022588459 ], [ 76.356950067127059, 18.532567022588459 ], [ 76.356950067127059, 18.532568726051409 ], [ 76.356944677235347, 18.532568726051409 ] ] ] } },
{ "type": "Feature", "properties": { "id": "LU_0008", "class": "Road / Paved Pathway", "confidence": 0.85, "area_sqm": 919.68, "perimeter_m": 121.6 }, "geometry": { "type": "Polygon", "coordinates": [ [ [ 76.357268070737618, 18.532536360252465 ], [ 76.357268070737618, 18.532534656789188 ], [ 76.357266274107062, 18.532534656789188 ], [ 76.357266274107062, 18.532532953325898 ], [ 76.357264477476505, 18.532532953325898 ], [ 76.357264477476505, 18.532297875229141 ], [ 76.357266274107062, 18.532297875229141 ], [ 76.357266274107062, 18.532296171763488 ], [ 76.357268070737618, 18.532296171763488 ], [ 76.357268070737618, 18.532294468297817 ], [ 76.357551938367408, 18.532294468297817 ], [ 76.357551938367408, 18.532296171763488 ], [ 76.357553734997978, 18.532296171763488 ], [ 76.357553734997978, 18.532297875229141 ], [ 76.357555531628535, 18.532297875229141 ], [ 76.357555531628535, 18.532532953325898 ], [ 76.357553734997978, 18.532532953325898 ], [ 76.357553734997978, 18.532534656789188 ], [ 76.357551938367408, 18.532534656789188 ], [ 76.357551938367408, 18.532536360252465 ], [ 76.357268070737618, 18.532536360252465 ] ] ] } },
{ "type": "Feature", "properties": { "id": "LU_0009", "class": "Tree Canopy / Forest", "confidence": 0.85, "area_sqm": 806.6, "perimeter_m": 127.2 }, "geometry": { "type": "Polygon", "coordinates": [ [ [ 76.358302929944941, 18.532532953325898 ], [ 76.358302929944941, 18.532531249862593 ], [ 76.358293946792102, 18.532531249862593 ], [ 76.358293946792102, 18.532529546399271 ], [ 76.35828676026982, 18.532529546399271 ], [ 76.35828676026982, 18.532527842935927 ], [ 76.358281370378123, 18.532527842935927 ], [ 76.358281370378123, 18.532526139472573 ], [ 76.358275980486411, 18.532526139472573 ], [ 76.358275980486411, 18.532524436009197 ], [ 76.358270590594714, 18.532524436009197 ], [ 76.358270590594714, 18.532522732545807 ], [ 76.358266997333573, 18.532522732545807 ], [ 76.358266997333573, 18.5325210290824 ], [ 76.358263404072432, 18.5325210290824 ], [ 76.358263404072432, 18.532519325618974 ], [ 76.35825981081129, 18.532519325618974 ], [ 76.35825981081129, 18.532517622155535 ], [ 76.358256217550149, 18.532517622155535 ], [ 76.358256217550149, 18.532515918692074 ], [ 76.358252624289037, 18.532515918692074 ], [ 76.358252624289037, 18.532514215228595 ], [ 76.358250827658452, 18.532514215228595 ], [ 76.358250827658452, 18.532512511765106 ], [ 76.358247234397311, 18.532512511765106 ], [ 76.358247234397311, 18.532510808301595 ], [ 76.358245437766755, 18.532510808301595 ], [ 76.358245437766755, 18.53250910483807 ], [ 76.358243641136198, 18.53250910483807 ], [ 76.358243641136198, 18.53250740137452 ], [ 76.358240047875057, 18.53250740137452 ], [ 76.358240047875057, 18.532505697910956 ], [ 76.358238251244472, 18.532505697910956 ], [ 76.358238251244472, 18.532503994447382 ], [ 76.358236454613916, 18.532503994447382 ], [ 76.358236454613916, 18.532502290983789 ], [ 76.35823465798336, 18.532502290983789 ], [ 76.35823465798336, 18.532500587520175 ], [ 76.358231064722219, 18.532500587520175 ], [ 76.358231064722219, 18.532498884056547 ], [ 76.358229268091634, 18.532498884056547 ], [ 76.358229268091634, 18.532497180592902 ], [ 76.358227471461078, 18.532497180592902 ], [ 76.358227471461078, 18.532495477129238 ], [ 76.358225674830507, 18.532495477129238 ], [ 76.358225674830507, 18.532493773665561 ], [ 76.358223878199922, 18.532493773665561 ], [ 76.358223878199922, 18.532492070201862 ], [ 76.358222081569366, 18.532492070201862 ], [ 76.358222081569366, 18.532490366738145 ], [ 76.358220284938781, 18.532490366738145 ], [ 76.358220284938781, 18.532488663274417 ], [ 76.358218488308225, 18.532488663274417 ], [ 76.358218488308225, 18.532485256346906 ], [ 76.358216691677669, 18.532485256346906 ], [ 76.358216691677669, 18.532483552883125 ], [ 76.358214895047084, 18.532483552883125 ], [ 76.358214895047084, 18.532481849419323 ], [ 76.358213098416527, 18.532481849419323 ], [ 76.358213098416527, 18.532480145955507 ], [ 76.358211301785943, 18.532480145955507 ], [ 76.358211301785943, 18.532476739027828 ], [ 76.358209505155386, 18.532476739027828 ], [ 76.358209505155386, 18.532475035563959 ], [ 76.35820770852483, 18.532475035563959 ], [ 76.35820770852483, 18.532473332100075 ], [ 76.358205911894245, 18.532473332100075 ], [ 76.358205911894245, 18.532469925172254 ], [ 76.358204115263689, 18.532469925172254 ], [ 76.358204115263689, 18.532468221708324 ], [ 76.358202318633104, 18.532468221708324 ], [ 76.358202318633104, 18.532464814780404 ], [ 76.358200522002548, 18.532464814780404 ], [ 76.358200522002548, 18.532461407852413 ], [ 76.358198725371992, 18.532461407852413 ], [ 76.358198725371992, 18.532458000924358 ], [ 76.358196928741407, 18.532458000924358 ], [ 76.358196928741407, 18.532452890532149 ], [ 76.358195132110851, 18.532452890532149 ], [ 76.358195132110851, 18.532449483603923 ], [ 76.358193335480266, 18.532449483603923 ], [ 76.358193335480266, 18.532444373211458 ], [ 76.358191538849709, 18.532444373211458 ], [ 76.358191538849709, 18.532440966283065 ], [ 76.358189742219153, 18.532440966283065 ], [ 76.358189742219153, 18.532435855890341 ], [ 76.358187945588568, 18.532435855890341 ], [ 76.358187945588568, 18.532429042033147 ], [ 76.358186148958012, 18.532429042033147 ], [ 76.358186148958012, 18.532420524711267 ], [ 76.358184352327427, 18.532420524711267 ], [ 76.358184352327427, 18.53237623463065 ], [ 76.358186148958012, 18.53237623463065 ], [ 76.358186148958012, 18.532366013841184 ], [ 76.358187945588568, 18.532366013841184 ], [ 76.358187945588568, 18.532359199981201 ], [ 76.358189742219153, 18.532359199981201 ], [ 76.358189742219153, 18.53235408958604 ], [ 76.358191538849709, 18.53235408958604 ], [ 76.358191538849709, 18.532348979190722 ], [ 76.358193335480266, 18.532348979190722 ], [ 76.358193335480266, 18.532345572260422 ], [ 76.358195132110851, 18.532345572260422 ], [ 76.358195132110851, 18.532340461864855 ], [ 76.358196928741407, 18.532340461864855 ], [ 76.358196928741407, 18.532337054934384 ], [ 76.358198725371992, 18.532337054934384 ], [ 76.358198725371992, 18.532335351469126 ], [ 76.358200522002548, 18.532335351469126 ], [ 76.358200522002548, 18.532330241073247 ], [ 76.358202318633104, 18.532330241073247 ], [ 76.358202318633104, 18.53232683414258 ], [ 76.358204115263689, 18.53232683414258 ], [ 76.358204115263689, 18.532325130677215 ], [ 76.358205911894245, 18.532325130677215 ], [ 76.358205911894245, 18.532321723746445 ], [ 76.35820770852483, 18.532321723746445 ], [ 76.35820770852483, 18.532320020281031 ], [ 76.358209505155386, 18.532320020281031 ], [ 76.358209505155386, 18.532318316815605 ], [ 76.358211301785943, 18.532318316815605 ], [ 76.358211301785943, 18.532314909884697 ], [ 76.358213098416527, 18.532314909884697 ], [ 76.358213098416527, 18.532313206419218 ], [ 76.358214895047084, 18.532313206419218 ], [ 76.358214895047084, 18.532311502953718 ], [ 76.358216691677669, 18.532311502953718 ], [ 76.358216691677669, 18.53230979948821 ], [ 76.358218488308225, 18.53230979948821 ], [ 76.358218488308225, 18.532306392557132 ], [ 76.358220284938781, 18.532306392557132 ], [ 76.358220284938781, 18.532304689091568 ], [ 76.358222081569366, 18.532304689091568 ], [ 76.358222081569366, 18.532302985625982 ], [ 76.358223878199922, 18.532302985625982 ], [ 76.358223878199922, 18.532301282160386 ], [ 76.358225674830507, 18.532301282160386 ], [ 76.358225674830507, 18.532299578694769 ], [ 76.358227471461078, 18.532299578694769 ], [ 76.358227471461078, 18.532297875229141 ], [ 76.358229268091634, 18.532297875229141 ], [ 76.358229268091634, 18.532296171763488 ], [ 76.358231064722219, 18.532296171763488 ], [ 76.358231064722219, 18.532294468297817 ], [ 76.35823465798336, 18.532294468297817 ], [ 76.35823465798336, 18.532292764832142 ], [ 76.358236454613916, 18.532292764832142 ], [ 76.358236454613916, 18.53229106136644 ], [ 76.358238251244472, 18.53229106136644 ], [ 76.358238251244472, 18.532289357900726 ], [ 76.358240047875057, 18.532289357900726 ], [ 76.358240047875057, 18.532287654434988 ], [ 76.358243641136198, 18.532287654434988 ], [ 76.358243641136198, 18.532285950969232 ], [ 76.358245437766755, 18.532285950969232 ], [ 76.358245437766755, 18.532284247503473 ], [ 76.358249031027896, 18.532284247503473 ], [ 76.358249031027896, 18.532282544037685 ], [ 76.358250827658452, 18.532282544037685 ], [ 76.358250827658452, 18.532280840571886 ], [ 76.358254420919593, 18.532280840571886 ], [ 76.358254420919593, 18.532279137106062 ], [ 76.358256217550149, 18.532279137106062 ], [ 76.358256217550149, 18.532277433640225 ], [ 76.35825981081129, 18.532277433640225 ], [ 76.35825981081129, 18.532275730174376 ], [ 76.358265200702988, 18.532275730174376 ], [ 76.358265200702988, 18.532274026708503 ], [ 76.358268793964129, 18.532274026708503 ], [ 76.358268793964129, 18.532272323242619 ], [ 76.358270590594714, 18.532272323242619 ], [ 76.358270590594714, 18.532270619776714 ], [ 76.358275980486411, 18.532270619776714 ], [ 76.358275980486411, 18.532268916310791 ], [ 76.358281370378123, 18.532268916310791 ], [ 76.358281370378123, 18.532267212844857 ], [ 76.358288556900405, 18.532267212844857 ], [ 76.358288556900405, 18.532265509378899 ], [ 76.358293946792102, 18.532265509378899 ], [ 76.358293946792102, 18.53226380591293 ], [ 76.358302929944941, 18.53226380591293 ], [ 76.358302929944941, 18.532262102446939 ], [ 76.358351438970288, 18.532262102446939 ], [ 76.358351438970288, 18.53226380591293 ], [ 76.358360422123127, 18.53226380591293 ], [ 76.358360422123127, 18.532265509378899 ], [ 76.358367608645381, 18.532265509378899 ], [ 76.358367608645381, 18.532267212844857 ], [ 76.358372998537078, 18.532267212844857 ], [ 76.358372998537078, 18.532268916310791 ], [ 76.358378388428804, 18.532268916310791 ], [ 76.358378388428804, 18.532270619776714 ], [ 76.358383778320515, 18.532270619776714 ], [ 76.358383778320515, 18.532272323242619 ], [ 76.358387371581657, 18.532272323242619 ], [ 76.358387371581657, 18.532274026708503 ], [ 76.358390964842769, 18.532274026708503 ], [ 76.358390964842769, 18.532275730174376 ], [ 76.35839455810391, 18.532275730174376 ], [ 76.35839455810391, 18.532277433640225 ], [ 76.358396354734495, 18.532277433640225 ], [ 76.358396354734495, 18.532279137106062 ], [ 76.358401744626192, 18.532279137106062 ], [ 76.358401744626192, 18.532280840571886 ], [ 76.358403541256749, 18.532280840571886 ], [ 76.358403541256749, 18.532282544037685 ], [ 76.35840713451789, 18.532282544037685 ], [ 76.35840713451789, 18.532284247503473 ], [ 76.358408931148446, 18.532284247503473 ], [ 76.358408931148446, 18.532285950969232 ], [ 76.358410727779031, 18.532285950969232 ], [ 76.358410727779031, 18.532287654434988 ], [ 76.358414321040172, 18.532287654434988 ], [ 76.358414321040172, 18.532289357900726 ], [ 76.358416117670728, 18.532289357900726 ], [ 76.358416117670728, 18.53229106136644 ], [ 76.358417914301285, 18.53229106136644 ], [ 76.358417914301285, 18.532292764832142 ], [ 76.358419710931869, 18.532292764832142 ], [ 76.358419710931869, 18.532294468297817 ], [ 76.35842330419301, 18.532294468297817 ], [ 76.35842330419301, 18.532296171763488 ], [ 76.358425100823567, 18.532296171763488 ], [ 76.358425100823567, 18.532297875229141 ], [ 76.358426897454137, 18.532297875229141 ], [ 76.358426897454137, 18.532299578694769 ], [ 76.358428694084708, 18.532299578694769 ], [ 76.358428694084708, 18.532301282160386 ], [ 76.358430490715278, 18.532301282160386 ], [ 76.358430490715278, 18.532302985625982 ], [ 76.358432287345849, 18.532302985625982 ], [ 76.358432287345849, 18.532304689091568 ], [ 76.35843408397642, 18.532304689091568 ], [ 76.35843408397642, 18.532306392557132 ], [ 76.35843588060699, 18.532306392557132 ], [ 76.35843588060699, 18.53230979948821 ], [ 76.358437677237561, 18.53230979948821 ], [ 76.358437677237561, 18.532311502953718 ], [ 76.358439473868117, 18.532311502953718 ], [ 76.358439473868117, 18.532313206419218 ], [ 76.358441270498702, 18.532313206419218 ], [ 76.358441270498702, 18.532314909884697 ], [ 76.358443067129258, 18.532314909884697 ], [ 76.358443067129258, 18.532318316815605 ], [ 76.358444863759829, 18.532318316815605 ], [ 76.358444863759829, 18.532320020281031 ], [ 76.358446660390399, 18.532320020281031 ], [ 76.358446660390399, 18.532321723746445 ], [ 76.358448457020955, 18.532321723746445 ], [ 76.358448457020955, 18.532325130677215 ], [ 76.35845025365154, 18.532325130677215 ], [ 76.35845025365154, 18.53232683414258 ], [ 76.358452050282096, 18.53232683414258 ], [ 76.358452050282096, 18.532330241073247 ], [ 76.358453846912667, 18.532330241073247 ], [ 76.358453846912667, 18.532333648003849 ], [ 76.358455643543238, 18.532333648003849 ], [ 76.358455643543238, 18.532337054934384 ], [ 76.358457440173794, 18.532337054934384 ], [ 76.358457440173794, 18.532340461864855 ], [ 76.358459236804379, 18.532340461864855 ], [ 76.358459236804379, 18.532343868795248 ], [ 76.358461033434935, 18.532343868795248 ], [ 76.358461033434935, 18.532348979190722 ], [ 76.358462830065505, 18.532348979190722 ], [ 76.358462830065505, 18.53235408958604 ], [ 76.358464626696076, 18.53235408958604 ], [ 76.358464626696076, 18.532359199981201 ], [ 76.358466423326632, 18.532359199981201 ], [ 76.358466423326632, 18.532366013841184 ], [ 76.358468219957217, 18.532366013841184 ], [ 76.358468219957217, 18.532374531165782 ], [ 76.358470016587773, 18.532374531165782 ], [ 76.358470016587773, 18.532418821246839 ], [ 76.358468219957217, 18.532418821246839 ], [ 76.358468219957217, 18.532429042033147 ], [ 76.358466423326632, 18.532429042033147 ], [ 76.358466423326632, 18.532435855890341 ], [ 76.358464626696076, 18.532435855890341 ], [ 76.358464626696076, 18.532440966283065 ], [ 76.358462830065505, 18.532440966283065 ], [ 76.358462830065505, 18.532446076675633 ], [ 76.358461033434935, 18.532446076675633 ], [ 76.358461033434935, 18.532449483603923 ], [ 76.358459236804379, 18.532449483603923 ], [ 76.358459236804379, 18.532454593996235 ], [ 76.358457440173794, 18.532454593996235 ], [ 76.358457440173794, 18.532458000924358 ], [ 76.358455643543238, 18.532458000924358 ], [ 76.358455643543238, 18.532461407852413 ], [ 76.358453846912667, 18.532461407852413 ], [ 76.358453846912667, 18.532463111316421 ], [ 76.358452050282096, 18.532463111316421 ], [ 76.358452050282096, 18.532468221708324 ], [ 76.35845025365154, 18.532468221708324 ], [ 76.35845025365154, 18.532469925172254 ], [ 76.358448457020955, 18.532469925172254 ], [ 76.358448457020955, 18.532473332100075 ], [ 76.358446660390399, 18.532473332100075 ], [ 76.358446660390399, 18.532475035563959 ], [ 76.358444863759829, 18.532475035563959 ], [ 76.358444863759829, 18.532476739027828 ], [ 76.358443067129258, 18.532476739027828 ], [ 76.358443067129258, 18.532480145955507 ], [ 76.358441270498702, 18.532480145955507 ], [ 76.358441270498702, 18.532481849419323 ], [ 76.358439473868117, 18.532481849419323 ], [ 76.358439473868117, 18.532483552883125 ], [ 76.358437677237561, 18.532483552883125 ], [ 76.358437677237561, 18.532485256346906 ], [ 76.35843588060699, 18.532485256346906 ], [ 76.35843588060699, 18.532488663274417 ], [ 76.35843408397642, 18.532488663274417 ], [ 76.35843408397642, 18.532490366738145 ], [ 76.358432287345849, 18.532490366738145 ], [ 76.358432287345849, 18.532492070201862 ], [ 76.358430490715278, 18.532492070201862 ], [ 76.358430490715278, 18.532493773665561 ], [ 76.358428694084708, 18.532493773665561 ], [ 76.358428694084708, 18.532495477129238 ], [ 76.358426897454137, 18.532495477129238 ], [ 76.358426897454137, 18.532497180592902 ], [ 76.358425100823567, 18.532497180592902 ], [ 76.358425100823567, 18.532498884056547 ], [ 76.35842330419301, 18.532498884056547 ], [ 76.35842330419301, 18.532500587520175 ], [ 76.358419710931869, 18.532500587520175 ], [ 76.358419710931869, 18.532502290983789 ], [ 76.358417914301285, 18.532502290983789 ], [ 76.358417914301285, 18.532503994447382 ], [ 76.358416117670728, 18.532503994447382 ], [ 76.358416117670728, 18.532505697910956 ], [ 76.358414321040172, 18.532505697910956 ], [ 76.358414321040172, 18.53250740137452 ], [ 76.358410727779031, 18.53250740137452 ], [ 76.358410727779031, 18.53250910483807 ], [ 76.358408931148446, 18.53250910483807 ], [ 76.358408931148446, 18.532510808301595 ], [ 76.35840713451789, 18.532510808301595 ], [ 76.35840713451789, 18.532512511765106 ], [ 76.358403541256749, 18.532512511765106 ], [ 76.358403541256749, 18.532514215228595 ], [ 76.358401744626192, 18.532514215228595 ], [ 76.358401744626192, 18.532515918692074 ], [ 76.358398151365051, 18.532515918692074 ], [ 76.358398151365051, 18.532517622155535 ], [ 76.35839455810391, 18.532517622155535 ], [ 76.35839455810391, 18.532519325618974 ], [ 76.358390964842769, 18.532519325618974 ], [ 76.358390964842769, 18.5325210290824 ], [ 76.358387371581657, 18.5325210290824 ], [ 76.358387371581657, 18.532522732545807 ], [ 76.358383778320515, 18.532522732545807 ], [ 76.358383778320515, 18.532524436009197 ], [ 76.358376591798219, 18.532524436009197 ], [ 76.358376591798219, 18.532526139472573 ], [ 76.358372998537078, 18.532526139472573 ], [ 76.358372998537078, 18.532527842935927 ], [ 76.358367608645381, 18.532527842935927 ], [ 76.358367608645381, 18.532529546399271 ], [ 76.358360422123127, 18.532529546399271 ], [ 76.358360422123127, 18.532531249862593 ], [ 76.358351438970288, 18.532531249862593 ], [ 76.358351438970288, 18.532532953325898 ], [ 76.358302929944941, 18.532532953325898 ] ] ] } },
{ "type": "Feature", "properties": { "id": "LU_0010", "class": "Road / Paved Pathway", "confidence": 0.85, "area_sqm": 919.68, "perimeter_m": 121.6 }, "geometry": { "type": "Polygon", "coordinates": [ [ [ 76.357842992519451, 18.532536360252465 ], [ 76.357842992519451, 18.532534656789188 ], [ 76.357841195888895, 18.532534656789188 ], [ 76.357841195888895, 18.532532953325898 ], [ 76.357839399258339, 18.532532953325898 ], [ 76.357839399258339, 18.53226380591293 ], [ 76.357841195888895, 18.53226380591293 ], [ 76.357841195888895, 18.532262102446939 ], [ 76.357842992519451, 18.532262102446939 ], [ 76.357842992519451, 18.532260398980934 ], [ 76.358090927537887, 18.532260398980934 ], [ 76.358090927537887, 18.532262102446939 ], [ 76.358092724168458, 18.532262102446939 ], [ 76.358092724168458, 18.53226380591293 ], [ 76.358094520799014, 18.53226380591293 ], [ 76.358094520799014, 18.532532953325898 ], [ 76.358092724168458, 18.532532953325898 ], [ 76.358092724168458, 18.532534656789188 ], [ 76.358090927537887, 18.532534656789188 ], [ 76.358090927537887, 18.532536360252465 ], [ 76.357842992519451, 18.532536360252465 ] ] ] } },
{ "type": "Feature", "properties": { "id": "LU_0014", "class": "Road / Paved Pathway", "confidence": 0.85, "area_sqm": 578.88, "perimeter_m": 97.6 }, "geometry": { "type": "Polygon", "coordinates": [ [ [ 76.356926710929656, 18.53226380591293 ], [ 76.356926710929656, 18.532262102446939 ], [ 76.3569249142991, 18.532262102446939 ], [ 76.3569249142991, 18.532260398980934 ], [ 76.356923117668529, 18.532260398980934 ], [ 76.356923117668529, 18.532025320509309 ], [ 76.3569249142991, 18.532025320509309 ], [ 76.3569249142991, 18.532023617040938 ], [ 76.356926710929656, 18.532023617040938 ], [ 76.356926710929656, 18.532021913572557 ], [ 76.35710278072537, 18.532021913572557 ], [ 76.35710278072537, 18.532023617040938 ], [ 76.357104577355926, 18.532023617040938 ], [ 76.357104577355926, 18.532025320509309 ], [ 76.357106373986483, 18.532025320509309 ], [ 76.357106373986483, 18.532260398980934 ], [ 76.357104577355926, 18.532260398980934 ], [ 76.357104577355926, 18.532262102446939 ], [ 76.35710278072537, 18.532262102446939 ], [ 76.35710278072537, 18.53226380591293 ], [ 76.356926710929656, 18.53226380591293 ] ] ] } },
{ "type": "Feature", "properties": { "id": "LU_0015", "class": "Building / Built-up", "confidence": 0.85, "area_sqm": 767.76, "perimeter_m": 112.8 }, "geometry": { "type": "Polygon", "coordinates": [ [ [ 76.357286037043295, 18.53221099845938 ], [ 76.357286037043295, 18.532209294992864 ], [ 76.357284240412739, 18.532209294992864 ], [ 76.357284240412739, 18.532008285824887 ], [ 76.357286037043295, 18.532008285824887 ], [ 76.357286037043295, 18.532006582356352 ], [ 76.357454920316727, 18.532006582356352 ], [ 76.357454920316727, 18.532008285824887 ], [ 76.357456716947297, 18.532008285824887 ], [ 76.357456716947297, 18.532006582356352 ], [ 76.357569904673099, 18.532006582356352 ], [ 76.357569904673099, 18.532008285824887 ], [ 76.357571701303669, 18.532008285824887 ], [ 76.357571701303669, 18.532209294992864 ], [ 76.357569904673099, 18.532209294992864 ], [ 76.357569904673099, 18.53221099845938 ], [ 76.357392038246829, 18.53221099845938 ], [ 76.357392038246829, 18.532209294992864 ], [ 76.357390241616272, 18.532209294992864 ], [ 76.357390241616272, 18.53221099845938 ], [ 76.357286037043295, 18.53221099845938 ] ] ] } },
{ "type": "Feature", "properties": { "id": "LU_0018", "class": "Building / Built-up", "confidence": 0.85, "area_sqm": 659.68, "perimeter_m": 105.2 }, "geometry": { "type": "Polygon", "coordinates": [ [ [ 76.357878925130834, 18.532176929125857 ], [ 76.357878925130834, 18.532175225659 ], [ 76.357877128500263, 18.532175225659 ], [ 76.357877128500263, 18.53200147195064 ], [ 76.357878925130834, 18.53200147195064 ], [ 76.357878925130834, 18.531998065013422 ], [ 76.357877128500263, 18.531998065013422 ], [ 76.357877128500263, 18.53199125113877 ], [ 76.357878925130834, 18.53199125113877 ], [ 76.357878925130834, 18.531989547670065 ], [ 76.358144826454932, 18.531989547670065 ], [ 76.358144826454932, 18.53199125113877 ], [ 76.358146623085503, 18.53199125113877 ], [ 76.358146623085503, 18.53214626671987 ], [ 76.358144826454932, 18.53214626671987 ], [ 76.358144826454932, 18.532147970187015 ], [ 76.358146623085503, 18.532147970187015 ], [ 76.358146623085503, 18.532175225659 ], [ 76.358144826454932, 18.532175225659 ], [ 76.358144826454932, 18.532176929125857 ], [ 76.358080147754478, 18.532176929125857 ], [ 76.358080147754478, 18.532175225659 ], [ 76.358078351123908, 18.532175225659 ], [ 76.358078351123908, 18.532176929125857 ], [ 76.357878925130834, 18.532176929125857 ] ] ] } },
{ "type": "Feature", "properties": { "id": "LU_0019", "class": "Agriculture / Cropland", "confidence": 0.85, "area_sqm": 2754.08, "perimeter_m": 456.8 }, "geometry": { "type": "Polygon", "coordinates": [ [ [ 76.356800946789889, 18.532737368799395 ], [ 76.356800946789889, 18.531921408907934 ], [ 76.357156679642415, 18.531921408907934 ], [ 76.357156679642415, 18.531923112377317 ], [ 76.357158476272971, 18.531923112377317 ], [ 76.357158476272971, 18.532737368799395 ], [ 76.356800946789889, 18.532737368799395 ] ], [ [ 76.356944677235347, 18.532568726051409 ], [ 76.357120747031047, 18.532568726051409 ], [ 76.357120747031047, 18.532567022588459 ], [ 76.357122543661603, 18.532567022588459 ], [ 76.357122543661603, 18.532366013841184 ], [ 76.357120747031047, 18.532366013841184 ], [ 76.357120747031047, 18.532364310376213 ], [ 76.356944677235347, 18.532364310376213 ], [ 76.356944677235347, 18.532366013841184 ], [ 76.356942880604777, 18.532366013841184 ], [ 76.356942880604777, 18.532567022588459 ], [ 76.356944677235347, 18.532567022588459 ], [ 76.356944677235347, 18.532568726051409 ] ], [ [ 76.356926710929656, 18.53226380591293 ], [ 76.35710278072537, 18.53226380591293 ], [ 76.35710278072537, 18.532262102446939 ], [ 76.357104577355926, 18.532262102446939 ], [ 76.357104577355926, 18.532260398980934 ], [ 76.357106373986483, 18.532260398980934 ], [ 76.357106373986483, 18.532025320509309 ], [ 76.357104577355926, 18.532025320509309 ], [ 76.357104577355926, 18.532023617040938 ], [ 76.35710278072537, 18.532023617040938 ], [ 76.35710278072537, 18.532021913572557 ], [ 76.356926710929656, 18.532021913572557 ], [ 76.356926710929656, 18.532023617040938 ], [ 76.3569249142991, 18.532023617040938 ], [ 76.3569249142991, 18.532025320509309 ], [ 76.356923117668529, 18.532025320509309 ], [ 76.356923117668529, 18.532260398980934 ], [ 76.3569249142991, 18.532260398980934 ], [ 76.3569249142991, 18.532262102446939 ], [ 76.356926710929656, 18.532262102446939 ], [ 76.356926710929656, 18.53226380591293 ] ] ] } },
{ "type": "Feature", "properties": { "id": "LU_0020", "class": "Agriculture / Cropland", "confidence": 0.85, "area_sqm": 3198.2, "perimeter_m": 527.2 }, "geometry": { "type": "Polygon", "coordinates": [ [ [ 76.357203392037178, 18.532737368799395 ], [ 76.357203392037178, 18.531923112377317 ], [ 76.357205188667734, 18.531923112377317 ], [ 76.357205188667734, 18.531921408907934 ], [ 76.357659736201512, 18.531921408907934 ], [ 76.357659736201512, 18.531923112377317 ], [ 76.357661532832068, 18.531923112377317 ], [ 76.357661532832068, 18.532737368799395 ], [ 76.357203392037178, 18.532737368799395 ] ], [ [ 76.357268070737618, 18.532536360252465 ], [ 76.357551938367408, 18.532536360252465 ], [ 76.357551938367408, 18.532534656789188 ], [ 76.357553734997978, 18.532534656789188 ], [ 76.357553734997978, 18.532532953325898 ], [ 76.357555531628535, 18.532532953325898 ], [ 76.357555531628535, 18.532297875229141 ], [ 76.357553734997978, 18.532297875229141 ], [ 76.357553734997978, 18.532296171763488 ], [ 76.357551938367408, 18.532296171763488 ], [ 76.357551938367408, 18.532294468297817 ], [ 76.357268070737618, 18.532294468297817 ], [ 76.357268070737618, 18.532296171763488 ], [ 76.357266274107062, 18.532296171763488 ], [ 76.357266274107062, 18.532297875229141 ], [ 76.357264477476505, 18.532297875229141 ], [ 76.357264477476505, 18.532532953325898 ], [ 76.357266274107062, 18.532532953325898 ], [ 76.357266274107062, 18.532534656789188 ], [ 76.357268070737618, 18.532534656789188 ], [ 76.357268070737618, 18.532536360252465 ] ], [ [ 76.357286037043295, 18.53221099845938 ], [ 76.357569904673099, 18.53221099845938 ], [ 76.357569904673099, 18.532209294992864 ], [ 76.357571701303669, 18.532209294992864 ], [ 76.357571701303669, 18.532008285824887 ], [ 76.357569904673099, 18.532008285824887 ], [ 76.357569904673099, 18.532006582356352 ], [ 76.357286037043295, 18.532006582356352 ], [ 76.357286037043295, 18.532008285824887 ], [ 76.357284240412739, 18.532008285824887 ], [ 76.357284240412739, 18.532209294992864 ], [ 76.357286037043295, 18.532209294992864 ], [ 76.357286037043295, 18.53221099845938 ] ] ] } },
{ "type": "Feature", "properties": { "id": "LU_0021", "class": "Agriculture / Cropland", "confidence": 0.85, "area_sqm": 6791.48, "perimeter_m": 736.0 }, "geometry": { "type": "Polygon", "coordinates": [ [ [ 76.357776517188455, 18.532737368799395 ], [ 76.357776517188455, 18.531923112377317 ], [ 76.357778313819011, 18.531923112377317 ], [ 76.357778313819011, 18.531921408907934 ], [ 76.358637103230635, 18.531921408907934 ], [ 76.358637103230635, 18.532737368799395 ], [ 76.357776517188455, 18.532737368799395 ] ], [ [ 76.357842992519451, 18.532536360252465 ], [ 76.358090927537887, 18.532536360252465 ], [ 76.358090927537887, 18.532534656789188 ], [ 76.358092724168458, 18.532534656789188 ], [ 76.358092724168458, 18.532532953325898 ], [ 76.358094520799014, 18.532532953325898 ], [ 76.358094520799014, 18.53226380591293 ], [ 76.358092724168458, 18.53226380591293 ], [ 76.358092724168458, 18.532262102446939 ], [ 76.358090927537887, 18.532262102446939 ], [ 76.358090927537887, 18.532260398980934 ], [ 76.357842992519451, 18.532260398980934 ], [ 76.357842992519451, 18.532262102446939 ], [ 76.357841195888895, 18.532262102446939 ], [ 76.357841195888895, 18.53226380591293 ], [ 76.357839399258339, 18.53226380591293 ], [ 76.357839399258339, 18.532532953325898 ], [ 76.357841195888895, 18.532532953325898 ], [ 76.357841195888895, 18.532534656789188 ], [ 76.357842992519451, 18.532534656789188 ], [ 76.357842992519451, 18.532536360252465 ] ], [ [ 76.358302929944941, 18.532532953325898 ], [ 76.358351438970288, 18.532532953325898 ], [ 76.358351438970288, 18.532531249862593 ], [ 76.358360422123127, 18.532531249862593 ], [ 76.358360422123127, 18.532529546399271 ], [ 76.358367608645381, 18.532529546399271 ], [ 76.358367608645381, 18.532527842935927 ], [ 76.358372998537078, 18.532527842935927 ], [ 76.358372998537078, 18.532526139472573 ], [ 76.358376591798219, 18.532526139472573 ], [ 76.358376591798219, 18.532524436009197 ], [ 76.358383778320515, 18.532524436009197 ], [ 76.358383778320515, 18.532522732545807 ], [ 76.358387371581657, 18.532522732545807 ], [ 76.358387371581657, 18.5325210290824 ], [ 76.358390964842769, 18.5325210290824 ], [ 76.358390964842769, 18.532519325618974 ], [ 76.35839455810391, 18.532519325618974 ], [ 76.35839455810391, 18.532517622155535 ], [ 76.358398151365051, 18.532517622155535 ], [ 76.358398151365051, 18.532515918692074 ], [ 76.358401744626192, 18.532515918692074 ], [ 76.358401744626192, 18.532514215228595 ], [ 76.358403541256749, 18.532514215228595 ], [ 76.358403541256749, 18.532512511765106 ], [ 76.35840713451789, 18.532512511765106 ], [ 76.35840713451789, 18.532510808301595 ], [ 76.358408931148446, 18.532510808301595 ], [ 76.358408931148446, 18.53250910483807 ], [ 76.358410727779031, 18.53250910483807 ], [ 76.358410727779031, 18.53250740137452 ], [ 76.358414321040172, 18.53250740137452 ], [ 76.358414321040172, 18.532505697910956 ], [ 76.358416117670728, 18.532505697910956 ], [ 76.358416117670728, 18.532503994447382 ], [ 76.358417914301285, 18.532503994447382 ], [ 76.358417914301285, 18.532502290983789 ], [ 76.358419710931869, 18.532502290983789 ], [ 76.358419710931869, 18.532500587520175 ], [ 76.35842330419301, 18.532500587520175 ], [ 76.35842330419301, 18.532498884056547 ], [ 76.358425100823567, 18.532498884056547 ], [ 76.358425100823567, 18.532497180592902 ], [ 76.358426897454137, 18.532497180592902 ], [ 76.358426897454137, 18.532495477129238 ], [ 76.358428694084708, 18.532495477129238 ], [ 76.358428694084708, 18.532493773665561 ], [ 76.358430490715278, 18.532493773665561 ], [ 76.358430490715278, 18.532492070201862 ], [ 76.358432287345849, 18.532492070201862 ], [ 76.358432287345849, 18.532490366738145 ], [ 76.35843408397642, 18.532490366738145 ], [ 76.35843408397642, 18.532488663274417 ], [ 76.35843588060699, 18.532488663274417 ], [ 76.35843588060699, 18.532485256346906 ], [ 76.358437677237561, 18.532485256346906 ], [ 76.358437677237561, 18.532483552883125 ], [ 76.358439473868117, 18.532483552883125 ], [ 76.358439473868117, 18.532481849419323 ], [ 76.358441270498702, 18.532481849419323 ], [ 76.358441270498702, 18.532480145955507 ], [ 76.358443067129258, 18.532480145955507 ], [ 76.358443067129258, 18.532476739027828 ], [ 76.358444863759829, 18.532476739027828 ], [ 76.358444863759829, 18.532475035563959 ], [ 76.358446660390399, 18.532475035563959 ], [ 76.358446660390399, 18.532473332100075 ], [ 76.358448457020955, 18.532473332100075 ], [ 76.358448457020955, 18.532469925172254 ], [ 76.35845025365154, 18.532469925172254 ], [ 76.35845025365154, 18.532468221708324 ], [ 76.358452050282096, 18.532468221708324 ], [ 76.358452050282096, 18.532463111316421 ], [ 76.358453846912667, 18.532463111316421 ], [ 76.358453846912667, 18.532461407852413 ], [ 76.358455643543238, 18.532461407852413 ], [ 76.358455643543238, 18.532458000924358 ], [ 76.358457440173794, 18.532458000924358 ], [ 76.358457440173794, 18.532454593996235 ], [ 76.358459236804379, 18.532454593996235 ], [ 76.358459236804379, 18.532449483603923 ], [ 76.358461033434935, 18.532449483603923 ], [ 76.358461033434935, 18.532446076675633 ], [ 76.358462830065505, 18.532446076675633 ], [ 76.358462830065505, 18.532440966283065 ], [ 76.358464626696076, 18.532440966283065 ], [ 76.358464626696076, 18.532435855890341 ], [ 76.358466423326632, 18.532435855890341 ], [ 76.358466423326632, 18.532429042033147 ], [ 76.358468219957217, 18.532429042033147 ], [ 76.358468219957217, 18.532418821246839 ], [ 76.358470016587773, 18.532418821246839 ], [ 76.358470016587773, 18.532374531165782 ], [ 76.358468219957217, 18.532374531165782 ], [ 76.358468219957217, 18.532366013841184 ], [ 76.358466423326632, 18.532366013841184 ], [ 76.358466423326632, 18.532359199981201 ], [ 76.358464626696076, 18.532359199981201 ], [ 76.358464626696076, 18.53235408958604 ], [ 76.358462830065505, 18.53235408958604 ], [ 76.358462830065505, 18.532348979190722 ], [ 76.358461033434935, 18.532348979190722 ], [ 76.358461033434935, 18.532343868795248 ], [ 76.358459236804379, 18.532343868795248 ], [ 76.358459236804379, 18.532340461864855 ], [ 76.358457440173794, 18.532340461864855 ], [ 76.358457440173794, 18.532337054934384 ], [ 76.358455643543238, 18.532337054934384 ], [ 76.358455643543238, 18.532333648003849 ], [ 76.358453846912667, 18.532333648003849 ], [ 76.358453846912667, 18.532330241073247 ], [ 76.358452050282096, 18.532330241073247 ], [ 76.358452050282096, 18.53232683414258 ], [ 76.35845025365154, 18.53232683414258 ], [ 76.35845025365154, 18.532325130677215 ], [ 76.358448457020955, 18.532325130677215 ], [ 76.358448457020955, 18.532321723746445 ], [ 76.358446660390399, 18.532321723746445 ], [ 76.358446660390399, 18.532320020281031 ], [ 76.358444863759829, 18.532320020281031 ], [ 76.358444863759829, 18.532318316815605 ], [ 76.358443067129258, 18.532318316815605 ], [ 76.358443067129258, 18.532314909884697 ], [ 76.358441270498702, 18.532314909884697 ], [ 76.358441270498702, 18.532313206419218 ], [ 76.358439473868117, 18.532313206419218 ], [ 76.358439473868117, 18.532311502953718 ], [ 76.358437677237561, 18.532311502953718 ], [ 76.358437677237561, 18.53230979948821 ], [ 76.35843588060699, 18.53230979948821 ], [ 76.35843588060699, 18.532306392557132 ], [ 76.35843408397642, 18.532306392557132 ], [ 76.35843408397642, 18.532304689091568 ], [ 76.358432287345849, 18.532304689091568 ], [ 76.358432287345849, 18.532302985625982 ], [ 76.358430490715278, 18.532302985625982 ], [ 76.358430490715278, 18.532301282160386 ], [ 76.358428694084708, 18.532301282160386 ], [ 76.358428694084708, 18.532299578694769 ], [ 76.358426897454137, 18.532299578694769 ], [ 76.358426897454137, 18.532297875229141 ], [ 76.358425100823567, 18.532297875229141 ], [ 76.358425100823567, 18.532296171763488 ], [ 76.35842330419301, 18.532296171763488 ], [ 76.35842330419301, 18.532294468297817 ], [ 76.358419710931869, 18.532294468297817 ], [ 76.358419710931869, 18.532292764832142 ], [ 76.358417914301285, 18.532292764832142 ], [ 76.358417914301285, 18.53229106136644 ], [ 76.358416117670728, 18.53229106136644 ], [ 76.358416117670728, 18.532289357900726 ], [ 76.358414321040172, 18.532289357900726 ], [ 76.358414321040172, 18.532287654434988 ], [ 76.358410727779031, 18.532287654434988 ], [ 76.358410727779031, 18.532285950969232 ], [ 76.358408931148446, 18.532285950969232 ], [ 76.358408931148446, 18.532284247503473 ], [ 76.35840713451789, 18.532284247503473 ], [ 76.35840713451789, 18.532282544037685 ], [ 76.358403541256749, 18.532282544037685 ], [ 76.358403541256749, 18.532280840571886 ], [ 76.358401744626192, 18.532280840571886 ], [ 76.358401744626192, 18.532279137106062 ], [ 76.358396354734495, 18.532279137106062 ], [ 76.358396354734495, 18.532277433640225 ], [ 76.35839455810391, 18.532277433640225 ], [ 76.35839455810391, 18.532275730174376 ], [ 76.358390964842769, 18.532275730174376 ], [ 76.358390964842769, 18.532274026708503 ], [ 76.358387371581657, 18.532274026708503 ], [ 76.358387371581657, 18.532272323242619 ], [ 76.358383778320515, 18.532272323242619 ], [ 76.358383778320515, 18.532270619776714 ], [ 76.358378388428804, 18.532270619776714 ], [ 76.358378388428804, 18.532268916310791 ], [ 76.358372998537078, 18.532268916310791 ], [ 76.358372998537078, 18.532267212844857 ], [ 76.358367608645381, 18.532267212844857 ], [ 76.358367608645381, 18.532265509378899 ], [ 76.358360422123127, 18.532265509378899 ], [ 76.358360422123127, 18.53226380591293 ], [ 76.358351438970288, 18.53226380591293 ], [ 76.358351438970288, 18.532262102446939 ], [ 76.358302929944941, 18.532262102446939 ], [ 76.358302929944941, 18.53226380591293 ], [ 76.358293946792102, 18.53226380591293 ], [ 76.358293946792102, 18.532265509378899 ], [ 76.358288556900405, 18.532265509378899 ], [ 76.358288556900405, 18.532267212844857 ], [ 76.358281370378123, 18.532267212844857 ], [ 76.358281370378123, 18.532268916310791 ], [ 76.358275980486411, 18.532268916310791 ], [ 76.358275980486411, 18.532270619776714 ], [ 76.358270590594714, 18.532270619776714 ], [ 76.358270590594714, 18.532272323242619 ], [ 76.358268793964129, 18.532272323242619 ], [ 76.358268793964129, 18.532274026708503 ], [ 76.358265200702988, 18.532274026708503 ], [ 76.358265200702988, 18.532275730174376 ], [ 76.35825981081129, 18.532275730174376 ], [ 76.35825981081129, 18.532277433640225 ], [ 76.358256217550149, 18.532277433640225 ], [ 76.358256217550149, 18.532279137106062 ], [ 76.358254420919593, 18.532279137106062 ], [ 76.358254420919593, 18.532280840571886 ], [ 76.358250827658452, 18.532280840571886 ], [ 76.358250827658452, 18.532282544037685 ], [ 76.358249031027896, 18.532282544037685 ], [ 76.358249031027896, 18.532284247503473 ], [ 76.358245437766755, 18.532284247503473 ], [ 76.358245437766755, 18.532285950969232 ], [ 76.358243641136198, 18.532285950969232 ], [ 76.358243641136198, 18.532287654434988 ], [ 76.358240047875057, 18.532287654434988 ], [ 76.358240047875057, 18.532289357900726 ], [ 76.358238251244472, 18.532289357900726 ], [ 76.358238251244472, 18.53229106136644 ], [ 76.358236454613916, 18.53229106136644 ], [ 76.358236454613916, 18.532292764832142 ], [ 76.35823465798336, 18.532292764832142 ], [ 76.35823465798336, 18.532294468297817 ], [ 76.358231064722219, 18.532294468297817 ], [ 76.358231064722219, 18.532296171763488 ], [ 76.358229268091634, 18.532296171763488 ], [ 76.358229268091634, 18.532297875229141 ], [ 76.358227471461078, 18.532297875229141 ], [ 76.358227471461078, 18.532299578694769 ], [ 76.358225674830507, 18.532299578694769 ], [ 76.358225674830507, 18.532301282160386 ], [ 76.358223878199922, 18.532301282160386 ], [ 76.358223878199922, 18.532302985625982 ], [ 76.358222081569366, 18.532302985625982 ], [ 76.358222081569366, 18.532304689091568 ], [ 76.358220284938781, 18.532304689091568 ], [ 76.358220284938781, 18.532306392557132 ], [ 76.358218488308225, 18.532306392557132 ], [ 76.358218488308225, 18.53230979948821 ], [ 76.358216691677669, 18.53230979948821 ], [ 76.358216691677669, 18.532311502953718 ], [ 76.358214895047084, 18.532311502953718 ], [ 76.358214895047084, 18.532313206419218 ], [ 76.358213098416527, 18.532313206419218 ], [ 76.358213098416527, 18.532314909884697 ], [ 76.358211301785943, 18.532314909884697 ], [ 76.358211301785943, 18.532318316815605 ], [ 76.358209505155386, 18.532318316815605 ], [ 76.358209505155386, 18.532320020281031 ], [ 76.35820770852483, 18.532320020281031 ], [ 76.35820770852483, 18.532321723746445 ], [ 76.358205911894245, 18.532321723746445 ], [ 76.358205911894245, 18.532325130677215 ], [ 76.358204115263689, 18.532325130677215 ], [ 76.358204115263689, 18.53232683414258 ], [ 76.358202318633104, 18.53232683414258 ], [ 76.358202318633104, 18.532330241073247 ], [ 76.358200522002548, 18.532330241073247 ], [ 76.358200522002548, 18.532335351469126 ], [ 76.358198725371992, 18.532335351469126 ], [ 76.358198725371992, 18.532337054934384 ], [ 76.358196928741407, 18.532337054934384 ], [ 76.358196928741407, 18.532340461864855 ], [ 76.358195132110851, 18.532340461864855 ], [ 76.358195132110851, 18.532345572260422 ], [ 76.358193335480266, 18.532345572260422 ], [ 76.358193335480266, 18.532348979190722 ], [ 76.358191538849709, 18.532348979190722 ], [ 76.358191538849709, 18.53235408958604 ], [ 76.358189742219153, 18.53235408958604 ], [ 76.358189742219153, 18.532359199981201 ], [ 76.358187945588568, 18.532359199981201 ], [ 76.358187945588568, 18.532366013841184 ], [ 76.358186148958012, 18.532366013841184 ], [ 76.358186148958012, 18.53237623463065 ], [ 76.358184352327427, 18.53237623463065 ], [ 76.358184352327427, 18.532420524711267 ], [ 76.358186148958012, 18.532420524711267 ], [ 76.358186148958012, 18.532429042033147 ], [ 76.358187945588568, 18.532429042033147 ], [ 76.358187945588568, 18.532435855890341 ], [ 76.358189742219153, 18.532435855890341 ], [ 76.358189742219153, 18.532440966283065 ], [ 76.358191538849709, 18.532440966283065 ], [ 76.358191538849709, 18.532444373211458 ], [ 76.358193335480266, 18.532444373211458 ], [ 76.358193335480266, 18.532449483603923 ], [ 76.358195132110851, 18.532449483603923 ], [ 76.358195132110851, 18.532452890532149 ], [ 76.358196928741407, 18.532452890532149 ], [ 76.358196928741407, 18.532458000924358 ], [ 76.358198725371992, 18.532458000924358 ], [ 76.358198725371992, 18.532461407852413 ], [ 76.358200522002548, 18.532461407852413 ], [ 76.358200522002548, 18.532464814780404 ], [ 76.358202318633104, 18.532464814780404 ], [ 76.358202318633104, 18.532468221708324 ], [ 76.358204115263689, 18.532468221708324 ], [ 76.358204115263689, 18.532469925172254 ], [ 76.358205911894245, 18.532469925172254 ], [ 76.358205911894245, 18.532473332100075 ], [ 76.35820770852483, 18.532473332100075 ], [ 76.35820770852483, 18.532475035563959 ], [ 76.358209505155386, 18.532475035563959 ], [ 76.358209505155386, 18.532476739027828 ], [ 76.358211301785943, 18.532476739027828 ], [ 76.358211301785943, 18.532480145955507 ], [ 76.358213098416527, 18.532480145955507 ], [ 76.358213098416527, 18.532481849419323 ], [ 76.358214895047084, 18.532481849419323 ], [ 76.358214895047084, 18.532483552883125 ], [ 76.358216691677669, 18.532483552883125 ], [ 76.358216691677669, 18.532485256346906 ], [ 76.358218488308225, 18.532485256346906 ], [ 76.358218488308225, 18.532488663274417 ], [ 76.358220284938781, 18.532488663274417 ], [ 76.358220284938781, 18.532490366738145 ], [ 76.358222081569366, 18.532490366738145 ], [ 76.358222081569366, 18.532492070201862 ], [ 76.358223878199922, 18.532492070201862 ], [ 76.358223878199922, 18.532493773665561 ], [ 76.358225674830507, 18.532493773665561 ], [ 76.358225674830507, 18.532495477129238 ], [ 76.358227471461078, 18.532495477129238 ], [ 76.358227471461078, 18.532497180592902 ], [ 76.358229268091634, 18.532497180592902 ], [ 76.358229268091634, 18.532498884056547 ], [ 76.358231064722219, 18.532498884056547 ], [ 76.358231064722219, 18.532500587520175 ], [ 76.35823465798336, 18.532500587520175 ], [ 76.35823465798336, 18.532502290983789 ], [ 76.358236454613916, 18.532502290983789 ], [ 76.358236454613916, 18.532503994447382 ], [ 76.358238251244472, 18.532503994447382 ], [ 76.358238251244472, 18.532505697910956 ], [ 76.358240047875057, 18.532505697910956 ], [ 76.358240047875057, 18.53250740137452 ], [ 76.358243641136198, 18.53250740137452 ], [ 76.358243641136198, 18.53250910483807 ], [ 76.358245437766755, 18.53250910483807 ], [ 76.358245437766755, 18.532510808301595 ], [ 76.358247234397311, 18.532510808301595 ], [ 76.358247234397311, 18.532512511765106 ], [ 76.358250827658452, 18.532512511765106 ], [ 76.358250827658452, 18.532514215228595 ], [ 76.358252624289037, 18.532514215228595 ], [ 76.358252624289037, 18.532515918692074 ], [ 76.358256217550149, 18.532515918692074 ], [ 76.358256217550149, 18.532517622155535 ], [ 76.35825981081129, 18.532517622155535 ], [ 76.35825981081129, 18.532519325618974 ], [ 76.358263404072432, 18.532519325618974 ], [ 76.358263404072432, 18.5325210290824 ], [ 76.358266997333573, 18.5325210290824 ], [ 76.358266997333573, 18.532522732545807 ], [ 76.358270590594714, 18.532522732545807 ], [ 76.358270590594714, 18.532524436009197 ], [ 76.358275980486411, 18.532524436009197 ], [ 76.358275980486411, 18.532526139472573 ], [ 76.358281370378123, 18.532526139472573 ], [ 76.358281370378123, 18.532527842935927 ], [ 76.35828676026982, 18.532527842935927 ], [ 76.35828676026982, 18.532529546399271 ], [ 76.358293946792102, 18.532529546399271 ], [ 76.358293946792102, 18.532531249862593 ], [ 76.358302929944941, 18.532531249862593 ], [ 76.358302929944941, 18.532532953325898 ] ], [ [ 76.357878925130834, 18.532176929125857 ], [ 76.358144826454932, 18.532176929125857 ], [ 76.358144826454932, 18.532175225659 ], [ 76.358146623085503, 18.532175225659 ], [ 76.358146623085503, 18.53199125113877 ], [ 76.358144826454932, 18.53199125113877 ], [ 76.358144826454932, 18.531989547670065 ], [ 76.357878925130834, 18.531989547670065 ], [ 76.357878925130834, 18.53199125113877 ], [ 76.357877128500263, 18.53199125113877 ], [ 76.357877128500263, 18.532175225659 ], [ 76.357878925130834, 18.532175225659 ], [ 76.357878925130834, 18.532176929125857 ] ] ] } },
{ "type": "Feature", "properties": { "id": "LU_0027", "class": "Road / Paved Pathway", "confidence": 0.85, "area_sqm": 862.88, "perimeter_m": 117.6 }, "geometry": { "type": "Polygon", "coordinates": [ [ [ 76.356980609846701, 18.531752765354856 ], [ 76.356980609846701, 18.531751061883771 ], [ 76.356978813216145, 18.531751061883771 ], [ 76.356978813216145, 18.531749358412672 ], [ 76.356977016585574, 18.531749358412672 ], [ 76.356977016585574, 18.531514279238188 ], [ 76.356978813216145, 18.531514279238188 ], [ 76.356978813216145, 18.531512575764726 ], [ 76.356980609846701, 18.531512575764726 ], [ 76.356980609846701, 18.53151087229125 ], [ 76.357246511170814, 18.53151087229125 ], [ 76.357246511170814, 18.531512575764726 ], [ 76.35724830780137, 18.531512575764726 ], [ 76.35724830780137, 18.531514279238188 ], [ 76.357250104431941, 18.531514279238188 ], [ 76.357250104431941, 18.531749358412672 ], [ 76.35724830780137, 18.531749358412672 ], [ 76.35724830780137, 18.531751061883771 ], [ 76.357246511170814, 18.531751061883771 ], [ 76.357246511170814, 18.531752765354856 ], [ 76.356980609846701, 18.531752765354856 ] ] ] } },
{ "type": "Feature", "properties": { "id": "LU_0028", "class": "Building / Built-up", "confidence": 0.85, "area_sqm": 839.8, "perimeter_m": 116.4 }, "geometry": { "type": "Polygon", "coordinates": [ [ [ 76.358238251244472, 18.531716992458566 ], [ 76.358238251244472, 18.531715288987129 ], [ 76.358236454613916, 18.531715288987129 ], [ 76.358236454613916, 18.531480209765785 ], [ 76.358238251244472, 18.531480209765785 ], [ 76.358238251244472, 18.531478506291986 ], [ 76.358504152568585, 18.531478506291986 ], [ 76.358504152568585, 18.531480209765785 ], [ 76.358505949199142, 18.531480209765785 ], [ 76.358505949199142, 18.531711882044199 ], [ 76.358504152568585, 18.531711882044199 ], [ 76.358504152568585, 18.531713585515675 ], [ 76.358505949199142, 18.531713585515675 ], [ 76.358505949199142, 18.531715288987129 ], [ 76.358504152568585, 18.531715288987129 ], [ 76.358504152568585, 18.531716992458566 ], [ 76.358238251244472, 18.531716992458566 ] ] ] } },
{ "type": "Feature", "properties": { "id": "LU_0029", "class": "Building / Built-up", "confidence": 0.85, "area_sqm": 839.68, "perimeter_m": 117.6 }, "geometry": { "type": "Polygon", "coordinates": [ [ [ 76.357321969654677, 18.531734027172018 ], [ 76.357321969654677, 18.531732323700748 ], [ 76.357320173024107, 18.531732323700748 ], [ 76.357320173024107, 18.531614784142207 ], [ 76.357321969654677, 18.531614784142207 ], [ 76.357321969654677, 18.531613080669743 ], [ 76.357320173024107, 18.531613080669743 ], [ 76.357320173024107, 18.531544941757542 ], [ 76.357321969654677, 18.531544941757542 ], [ 76.357321969654677, 18.531543238284389 ], [ 76.357320173024107, 18.531543238284389 ], [ 76.357320173024107, 18.531480209765785 ], [ 76.357321969654677, 18.531480209765785 ], [ 76.357321969654677, 18.531478506291986 ], [ 76.357569904673099, 18.531478506291986 ], [ 76.357569904673099, 18.531480209765785 ], [ 76.357571701303669, 18.531480209765785 ], [ 76.357571701303669, 18.531732323700748 ], [ 76.357569904673099, 18.531732323700748 ], [ 76.357569904673099, 18.531734027172018 ], [ 76.357557328259119, 18.531734027172018 ], [ 76.357557328259119, 18.531732323700748 ], [ 76.357555531628535, 18.531732323700748 ], [ 76.357555531628535, 18.531734027172018 ], [ 76.357341732590925, 18.531734027172018 ], [ 76.357341732590925, 18.531732323700748 ], [ 76.357339935960354, 18.531732323700748 ], [ 76.357339935960354, 18.531734027172018 ], [ 76.357321969654677, 18.531734027172018 ] ] ] } },
{ "type": "Feature", "properties": { "id": "LU_0030", "class": "Road / Paved Pathway", "confidence": 0.85, "area_sqm": 1182.88, "perimeter_m": 137.6 }, "geometry": { "type": "Polygon", "coordinates": [ [ [ 76.357860958825142, 18.531752765354856 ], [ 76.357860958825142, 18.531751061883771 ], [ 76.357859162194572, 18.531751061883771 ], [ 76.357859162194572, 18.531749358412672 ], [ 76.357857365564016, 18.531749358412672 ], [ 76.357857365564016, 18.531463175027039 ], [ 76.357859162194572, 18.531463175027039 ], [ 76.357859162194572, 18.531461471553069 ], [ 76.357860958825142, 18.531461471553069 ], [ 76.357860958825142, 18.531459768079081 ], [ 76.358162792760609, 18.531459768079081 ], [ 76.358162792760609, 18.531461471553069 ], [ 76.35816458939118, 18.531461471553069 ], [ 76.35816458939118, 18.531463175027039 ], [ 76.358166386021736, 18.531463175027039 ], [ 76.358166386021736, 18.531749358412672 ], [ 76.35816458939118, 18.531749358412672 ], [ 76.35816458939118, 18.531751061883771 ], [ 76.358162792760609, 18.531751061883771 ], [ 76.358162792760609, 18.531752765354856 ], [ 76.357860958825142, 18.531752765354856 ] ] ] } },
{ "type": "Feature", "properties": { "id": "LU_0031", "class": "Road / Paved Pathway", "confidence": 0.85, "area_sqm": 919.68, "perimeter_m": 121.6 }, "geometry": { "type": "Polygon", "coordinates": [ [ [ 76.356962643541024, 18.531446140286594 ], [ 76.356962643541024, 18.531444436812453 ], [ 76.356960846910468, 18.531444436812453 ], [ 76.356960846910468, 18.531442733338299 ], [ 76.356959050279897, 18.531442733338299 ], [ 76.356959050279897, 18.531173584208588 ], [ 76.356960846910468, 18.531173584208588 ], [ 76.356960846910468, 18.53117188073173 ], [ 76.356962643541024, 18.53117188073173 ], [ 76.356962643541024, 18.531170177254861 ], [ 76.35721057855946, 18.531170177254861 ], [ 76.35721057855946, 18.53117188073173 ], [ 76.357212375190016, 18.53117188073173 ], [ 76.357212375190016, 18.531173584208588 ], [ 76.357214171820573, 18.531173584208588 ], [ 76.357214171820573, 18.531442733338299 ], [ 76.357212375190016, 18.531442733338299 ], [ 76.357212375190016, 18.531444436812453 ], [ 76.35721057855946, 18.531444436812453 ], [ 76.35721057855946, 18.531446140286594 ], [ 76.356962643541024, 18.531446140286594 ] ] ] } },
{ "type": "Feature", "properties": { "id": "LU_0032", "class": "Road / Paved Pathway", "confidence": 0.85, "area_sqm": 749.28, "perimeter_m": 109.6 }, "geometry": { "type": "Polygon", "coordinates": [ [ [ 76.358256217550149, 18.531412070800606 ], [ 76.358256217550149, 18.531410367326128 ], [ 76.358254420919593, 18.531410367326128 ], [ 76.358254420919593, 18.531408663851636 ], [ 76.358252624289037, 18.531408663851636 ], [ 76.358252624289037, 18.531173584208588 ], [ 76.358254420919593, 18.531173584208588 ], [ 76.358254420919593, 18.53117188073173 ], [ 76.358256217550149, 18.53117188073173 ], [ 76.358256217550149, 18.531170177254861 ], [ 76.358486186262908, 18.531170177254861 ], [ 76.358486186262908, 18.53117188073173 ], [ 76.358487982893465, 18.53117188073173 ], [ 76.358487982893465, 18.531173584208588 ], [ 76.358489779524035, 18.531173584208588 ], [ 76.358489779524035, 18.531408663851636 ], [ 76.358487982893465, 18.531408663851636 ], [ 76.358487982893465, 18.531410367326128 ], [ 76.358486186262908, 18.531410367326128 ], [ 76.358486186262908, 18.531412070800606 ], [ 76.358256217550149, 18.531412070800606 ] ] ] } },
{ "type": "Feature", "properties": { "id": "LU_0033", "class": "Road / Paved Pathway", "confidence": 0.85, "area_sqm": 862.88, "perimeter_m": 117.6 }, "geometry": { "type": "Polygon", "coordinates": [ [ [ 76.357339935960354, 18.531412070800606 ], [ 76.357339935960354, 18.531410367326128 ], [ 76.357338139329784, 18.531410367326128 ], [ 76.357338139329784, 18.531408663851636 ], [ 76.357336342699227, 18.531408663851636 ], [ 76.357336342699227, 18.531156549439281 ], [ 76.357338139329784, 18.531156549439281 ], [ 76.357338139329784, 18.531154845962256 ], [ 76.357339935960354, 18.531154845962256 ], [ 76.357339935960354, 18.531153142485213 ], [ 76.357587870978776, 18.531153142485213 ], [ 76.357587870978776, 18.531154845962256 ], [ 76.357589667609346, 18.531154845962256 ], [ 76.357589667609346, 18.531156549439281 ], [ 76.357591464239903, 18.531156549439281 ], [ 76.357591464239903, 18.531408663851636 ], [ 76.357589667609346, 18.531408663851636 ], [ 76.357589667609346, 18.531410367326128 ], [ 76.357587870978776, 18.531410367326128 ], [ 76.357587870978776, 18.531412070800606 ], [ 76.357339935960354, 18.531412070800606 ] ] ] } },
{ "type": "Feature", "properties": { "id": "LU_0034", "class": "Road / Paved Pathway", "confidence": 0.85, "area_sqm": 862.84, "perimeter_m": 118.0 }, "geometry": { "type": "Polygon", "coordinates": [ [ [ 76.357878925130834, 18.531378001307836 ], [ 76.357878925130834, 18.531376297833017 ], [ 76.357877128500263, 18.531376297833017 ], [ 76.357877128500263, 18.53137459435818 ], [ 76.357875331869707, 18.53137459435818 ], [ 76.357875331869707, 18.531122479895576 ], [ 76.357877128500263, 18.531122479895576 ], [ 76.357877128500263, 18.531120776418213 ], [ 76.357878925130834, 18.531120776418213 ], [ 76.357878925130834, 18.531119072940829 ], [ 76.358126860149255, 18.531119072940829 ], [ 76.358126860149255, 18.531120776418213 ], [ 76.358128656779826, 18.531120776418213 ], [ 76.358128656779826, 18.531122479895576 ], [ 76.358130453410382, 18.531122479895576 ], [ 76.358130453410382, 18.531292827546192 ], [ 76.358128656779826, 18.531292827546192 ], [ 76.358128656779826, 18.531294531021839 ], [ 76.358130453410382, 18.531294531021839 ], [ 76.358130453410382, 18.53137459435818 ], [ 76.358128656779826, 18.53137459435818 ], [ 76.358128656779826, 18.531376297833017 ], [ 76.358126860149255, 18.531376297833017 ], [ 76.358126860149255, 18.531378001307836 ], [ 76.357878925130834, 18.531378001307836 ] ] ] } },
{ "type": "Feature", "properties": { "id": "LU_0035", "class": "Road / Paved Pathway", "confidence": 0.85, "area_sqm": 5011.56, "perimeter_m": 1009.2 }, "geometry": { "type": "Polygon", "coordinates": [ [ [ 76.357158476272971, 18.532737368799395 ], [ 76.357158476272971, 18.531923112377317 ], [ 76.357156679642415, 18.531923112377317 ], [ 76.357156679642415, 18.531921408907934 ], [ 76.356800946789889, 18.531921408907934 ], [ 76.356800946789889, 18.531836235417074 ], [ 76.357659736201512, 18.531836235417074 ], [ 76.357659736201512, 18.531834531946824 ], [ 76.357661532832068, 18.531834531946824 ], [ 76.357661532832068, 18.530996422524826 ], [ 76.357776517188455, 18.530996422524826 ], [ 76.357776517188455, 18.531834531946824 ], [ 76.357778313819011, 18.531834531946824 ], [ 76.357778313819011, 18.531836235417074 ], [ 76.358637103230635, 18.531836235417074 ], [ 76.358637103230635, 18.531921408907934 ], [ 76.357778313819011, 18.531921408907934 ], [ 76.357778313819011, 18.531923112377317 ], [ 76.357776517188455, 18.531923112377317 ], [ 76.357776517188455, 18.532737368799395 ], [ 76.357661532832068, 18.532737368799395 ], [ 76.357661532832068, 18.531923112377317 ], [ 76.357659736201512, 18.531923112377317 ], [ 76.357659736201512, 18.531921408907934 ], [ 76.357205188667734, 18.531921408907934 ], [ 76.357205188667734, 18.531923112377317 ], [ 76.357203392037178, 18.531923112377317 ], [ 76.357203392037178, 18.532737368799395 ], [ 76.357158476272971, 18.532737368799395 ] ] ] } },
{ "type": "Feature", "properties": { "id": "LU_0036", "class": "Agriculture / Cropland", "confidence": 0.85, "area_sqm": 5960.56, "perimeter_m": 861.6 }, "geometry": { "type": "Polygon", "coordinates": [ [ [ 76.356800946789889, 18.531836235417074 ], [ 76.356800946789889, 18.530996422524826 ], [ 76.357661532832068, 18.530996422524826 ], [ 76.357661532832068, 18.531834531946824 ], [ 76.357659736201512, 18.531834531946824 ], [ 76.357659736201512, 18.531836235417074 ], [ 76.356800946789889, 18.531836235417074 ] ], [ [ 76.356980609846701, 18.531752765354856 ], [ 76.357246511170814, 18.531752765354856 ], [ 76.357246511170814, 18.531751061883771 ], [ 76.35724830780137, 18.531751061883771 ], [ 76.35724830780137, 18.531749358412672 ], [ 76.357250104431941, 18.531749358412672 ], [ 76.357250104431941, 18.531514279238188 ], [ 76.35724830780137, 18.531514279238188 ], [ 76.35724830780137, 18.531512575764726 ], [ 76.357246511170814, 18.531512575764726 ], [ 76.357246511170814, 18.53151087229125 ], [ 76.356980609846701, 18.53151087229125 ], [ 76.356980609846701, 18.531512575764726 ], [ 76.356978813216145, 18.531512575764726 ], [ 76.356978813216145, 18.531514279238188 ], [ 76.356977016585574, 18.531514279238188 ], [ 76.356977016585574, 18.531749358412672 ], [ 76.356978813216145, 18.531749358412672 ], [ 76.356978813216145, 18.531751061883771 ], [ 76.356980609846701, 18.531751061883771 ], [ 76.356980609846701, 18.531752765354856 ] ], [ [ 76.357321969654677, 18.531734027172018 ], [ 76.357569904673099, 18.531734027172018 ], [ 76.357569904673099, 18.531732323700748 ], [ 76.357571701303669, 18.531732323700748 ], [ 76.357571701303669, 18.531480209765785 ], [ 76.357569904673099, 18.531480209765785 ], [ 76.357569904673099, 18.531478506291986 ], [ 76.357321969654677, 18.531478506291986 ], [ 76.357321969654677, 18.531480209765785 ], [ 76.357320173024107, 18.531480209765785 ], [ 76.357320173024107, 18.531732323700748 ], [ 76.357321969654677, 18.531732323700748 ], [ 76.357321969654677, 18.531734027172018 ] ], [ [ 76.356962643541024, 18.531446140286594 ], [ 76.35721057855946, 18.531446140286594 ], [ 76.35721057855946, 18.531444436812453 ], [ 76.357212375190016, 18.531444436812453 ], [ 76.357212375190016, 18.531442733338299 ], [ 76.357214171820573, 18.531442733338299 ], [ 76.357214171820573, 18.531173584208588 ], [ 76.357212375190016, 18.531173584208588 ], [ 76.357212375190016, 18.53117188073173 ], [ 76.35721057855946, 18.53117188073173 ], [ 76.35721057855946, 18.531170177254861 ], [ 76.356962643541024, 18.531170177254861 ], [ 76.356962643541024, 18.53117188073173 ], [ 76.356960846910468, 18.53117188073173 ], [ 76.356960846910468, 18.531173584208588 ], [ 76.356959050279897, 18.531173584208588 ], [ 76.356959050279897, 18.531442733338299 ], [ 76.356960846910468, 18.531442733338299 ], [ 76.356960846910468, 18.531444436812453 ], [ 76.356962643541024, 18.531444436812453 ], [ 76.356962643541024, 18.531446140286594 ] ], [ [ 76.357339935960354, 18.531412070800606 ], [ 76.357587870978776, 18.531412070800606 ], [ 76.357587870978776, 18.531410367326128 ], [ 76.357589667609346, 18.531410367326128 ], [ 76.357589667609346, 18.531408663851636 ], [ 76.357591464239903, 18.531408663851636 ], [ 76.357591464239903, 18.531156549439281 ], [ 76.357589667609346, 18.531156549439281 ], [ 76.357589667609346, 18.531154845962256 ], [ 76.357587870978776, 18.531154845962256 ], [ 76.357587870978776, 18.531153142485213 ], [ 76.357339935960354, 18.531153142485213 ], [ 76.357339935960354, 18.531154845962256 ], [ 76.357338139329784, 18.531154845962256 ], [ 76.357338139329784, 18.531156549439281 ], [ 76.357336342699227, 18.531156549439281 ], [ 76.357336342699227, 18.531408663851636 ], [ 76.357338139329784, 18.531408663851636 ], [ 76.357338139329784, 18.531410367326128 ], [ 76.357339935960354, 18.531410367326128 ], [ 76.357339935960354, 18.531412070800606 ] ] ] } },
{ "type": "Feature", "properties": { "id": "LU_0037", "class": "Agriculture / Cropland", "confidence": 0.85, "area_sqm": 5811.0, "perimeter_m": 870.0 }, "geometry": { "type": "Polygon", "coordinates": [ [ [ 76.357778313819011, 18.531836235417074 ], [ 76.357778313819011, 18.531834531946824 ], [ 76.357776517188455, 18.531834531946824 ], [ 76.357776517188455, 18.530996422524826 ], [ 76.358637103230635, 18.530996422524826 ], [ 76.358637103230635, 18.531836235417074 ], [ 76.357778313819011, 18.531836235417074 ] ], [ [ 76.357860958825142, 18.531752765354856 ], [ 76.358162792760609, 18.531752765354856 ], [ 76.358162792760609, 18.531751061883771 ], [ 76.35816458939118, 18.531751061883771 ], [ 76.35816458939118, 18.531749358412672 ], [ 76.358166386021736, 18.531749358412672 ], [ 76.358166386021736, 18.531463175027039 ], [ 76.35816458939118, 18.531463175027039 ], [ 76.35816458939118, 18.531461471553069 ], [ 76.358162792760609, 18.531461471553069 ], [ 76.358162792760609, 18.531459768079081 ], [ 76.357860958825142, 18.531459768079081 ], [ 76.357860958825142, 18.531461471553069 ], [ 76.357859162194572, 18.531461471553069 ], [ 76.357859162194572, 18.531463175027039 ], [ 76.357857365564016, 18.531463175027039 ], [ 76.357857365564016, 18.531749358412672 ], [ 76.357859162194572, 18.531749358412672 ], [ 76.357859162194572, 18.531751061883771 ], [ 76.357860958825142, 18.531751061883771 ], [ 76.357860958825142, 18.531752765354856 ] ], [ [ 76.358238251244472, 18.531716992458566 ], [ 76.358504152568585, 18.531716992458566 ], [ 76.358504152568585, 18.531715288987129 ], [ 76.358505949199142, 18.531715288987129 ], [ 76.358505949199142, 18.531480209765785 ], [ 76.358504152568585, 18.531480209765785 ], [ 76.358504152568585, 18.531478506291986 ], [ 76.358238251244472, 18.531478506291986 ], [ 76.358238251244472, 18.531480209765785 ], [ 76.358236454613916, 18.531480209765785 ], [ 76.358236454613916, 18.531715288987129 ], [ 76.358238251244472, 18.531715288987129 ], [ 76.358238251244472, 18.531716992458566 ] ], [ [ 76.358256217550149, 18.531412070800606 ], [ 76.358486186262908, 18.531412070800606 ], [ 76.358486186262908, 18.531410367326128 ], [ 76.358487982893465, 18.531410367326128 ], [ 76.358487982893465, 18.531408663851636 ], [ 76.358489779524035, 18.531408663851636 ], [ 76.358489779524035, 18.531173584208588 ], [ 76.358487982893465, 18.531173584208588 ], [ 76.358487982893465, 18.53117188073173 ], [ 76.358486186262908, 18.53117188073173 ], [ 76.358486186262908, 18.531170177254861 ], [ 76.358256217550149, 18.531170177254861 ], [ 76.358256217550149, 18.53117188073173 ], [ 76.358254420919593, 18.53117188073173 ], [ 76.358254420919593, 18.531173584208588 ], [ 76.358252624289037, 18.531173584208588 ], [ 76.358252624289037, 18.531408663851636 ], [ 76.358254420919593, 18.531408663851636 ], [ 76.358254420919593, 18.531410367326128 ], [ 76.358256217550149, 18.531410367326128 ], [ 76.358256217550149, 18.531412070800606 ] ], [ [ 76.357878925130834, 18.531378001307836 ], [ 76.358126860149255, 18.531378001307836 ], [ 76.358126860149255, 18.531376297833017 ], [ 76.358128656779826, 18.531376297833017 ], [ 76.358128656779826, 18.53137459435818 ], [ 76.358130453410382, 18.53137459435818 ], [ 76.358130453410382, 18.531294531021839 ], [ 76.358128656779826, 18.531294531021839 ], [ 76.358128656779826, 18.531292827546192 ], [ 76.358130453410382, 18.531292827546192 ], [ 76.358130453410382, 18.531122479895576 ], [ 76.358128656779826, 18.531122479895576 ], [ 76.358128656779826, 18.531120776418213 ], [ 76.358126860149255, 18.531120776418213 ], [ 76.358126860149255, 18.531119072940829 ], [ 76.357878925130834, 18.531119072940829 ], [ 76.357878925130834, 18.531120776418213 ], [ 76.357877128500263, 18.531120776418213 ], [ 76.357877128500263, 18.531122479895576 ], [ 76.357875331869707, 18.531122479895576 ], [ 76.357875331869707, 18.53137459435818 ], [ 76.357877128500263, 18.53137459435818 ], [ 76.357877128500263, 18.531376297833017 ], [ 76.357878925130834, 18.531376297833017 ], [ 76.357878925130834, 18.531378001307836 ] ] ] } }
]
}
