{
"type": "FeatureCollection",
"name": "parcels",
"crs": { "type": "name", "properties": { "name": "urn:ogc:def:crs:OGC:1.3:CRS84" } },
"features": [
{ "type": "Feature", "properties": { "id": "PRCL_0006", "class": "parcel", "confidence": 0.9, "area_sqm": 5298.68, "perimeter_m": 320.51, "length_m": 104.55, "width_m": 61.71, "buildings_count": 1 }, "geometry": { "type": "Polygon", "coordinates": [ [ [ 76.357776362734825, 18.532213510849516 ], [ 76.357777537437954, 18.532738104673331 ], [ 76.357699756083917, 18.532738261250365 ], [ 76.357699783676424, 18.532739072260647 ], [ 76.358638899861205, 18.532739072260647 ], [ 76.358638899861205, 18.532324025726705 ], [ 76.357776362734825, 18.532213510849516 ] ] ] } },
{ "type": "Feature", "properties": { "id": "PRCL_0009", "class": "parcel", "confidence": 0.9, "area_sqm": 3449.7, "perimeter_m": 257.0, "length_m": 101.54, "width_m": 41.91, "buildings_count": 1 }, "geometry": { "type": "Polygon", "coordinates": [ [ [ 76.358638899861205, 18.532138152836673 ], [ 76.358314428380567, 18.531922260642631 ], [ 76.357775710550797, 18.531922260642631 ], [ 76.357776362734825, 18.532213510849516 ], [ 76.358638899861205, 18.532324025726705 ], [ 76.358638899861205, 18.532138152836673 ] ] ] } },
{ "type": "Feature", "properties": { "id": "PRCL_0002", "class": "parcel", "confidence": 0.9, "area_sqm": 2952.14, "perimeter_m": 216.36, "length_m": 58.44, "width_m": 54.18, "buildings_count": 1 }, "geometry": { "type": "Polygon", "coordinates": [ [ [ 76.357265940809896, 18.531457574028639 ], [ 76.357285850600519, 18.531435999794073 ], [ 76.357252606881687, 18.530994719046202 ], [ 76.356799150159318, 18.530994719046202 ], [ 76.356799150159318, 18.531492515122057 ], [ 76.357265940809896, 18.531457574028639 ] ] ] } },
{ "type": "Feature", "properties": { "id": "PRCL_0005", "class": "parcel", "confidence": 0.9, "area_sqm": 2846.77, "perimeter_m": 227.02, "length_m": 57.56, "width_m": 57.33, "buildings_count": 1 }, "geometry": { "type": "Polygon", "coordinates": [ [ [ 76.357662553340731, 18.532738336141005 ], [ 76.357662431276935, 18.532683825495141 ], [ 76.35766151553517, 18.53227487753033 ], [ 76.357204185593901, 18.532250787806955 ], [ 76.357205234360123, 18.532739028849438 ], [ 76.357182753654371, 18.532739072260647 ], [ 76.357699783676424, 18.532739072260647 ], [ 76.357699756083917, 18.532738261250365 ], [ 76.357662553340731, 18.532738336141005 ] ] ] } },
{ "type": "Feature", "properties": { "id": "PRCL_0011", "class": "parcel", "confidence": 0.9, "area_sqm": 2749.31, "perimeter_m": 316.98, "length_m": 81.45, "width_m": 50.26, "buildings_count": 1 }, "geometry": { "type": "Polygon", "coordinates": [ [ [ 76.358197737225169, 18.531837087152191 ], [ 76.358638001545913, 18.531837087152191 ], [ 76.358638001545913, 18.531922260642631 ], [ 76.358593085781706, 18.531922260642631 ], [ 76.358314428380567, 18.531922260642631 ], [ 76.358638899861205, 18.532138152836673 ], [ 76.358638899861205, 18.531444436812453 ], [ 76.358187384141502, 18.531444436812453 ], [ 76.358197737225169, 18.531837087152191 ] ] ] } },
{ "type": "Feature", "properties": { "id": "PRCL_0012", "class": "parcel", "confidence": 0.9, "area_sqm": 2614.77, "perimeter_m": 203.47, "length_m": 52.8, "width_m": 52.5, "buildings_count": 1 }, "geometry": { "type": "Polygon", "coordinates": [ [ [ 76.358187384141502, 18.531444436812453 ], [ 76.358638899861205, 18.531444436812453 ], [ 76.358638899861205, 18.530994719046202 ], [ 76.358222432131413, 18.530994719046202 ], [ 76.358167244574673, 18.53142379322454 ], [ 76.358187384141502, 18.531444436812453 ] ] ] } },
{ "type": "Feature", "properties": { "id": "PRCL_0010", "class": "parcel", "confidence": 0.9, "area_sqm": 2388.2, "perimeter_m": 209.05, "length_m": 56.56, "width_m": 51.42, "buildings_count": 1 }, "geometry": { "type": "Polygon", "coordinates": [ [ [ 76.357772807359467, 18.530996312227998 ], [ 76.357772923807502, 18.531049971682275 ], [ 76.357773754327539, 18.53143267626184 ], [ 76.358167244574673, 18.53142379322454 ], [ 76.358222432131413, 18.530994719046202 ], [ 76.357714353770788, 18.530994719046202 ], [ 76.357714473792797, 18.530996426032686 ], [ 76.357772807359467, 18.530996312227998 ] ] ] } },
{ "type": "Feature", "properties": { "id": "PRCL_0003", "class": "parcel", "confidence": 0.9, "area_sqm": 2301.34, "perimeter_m": 205.22, "length_m": 54.01, "width_m": 51.41, "buildings_count": 1 }, "geometry": { "type": "Polygon", "coordinates": [ [ [ 76.357660614159826, 18.531454701469418 ], [ 76.35765961987326, 18.530996533048832 ], [ 76.357714473792797, 18.530996426032686 ], [ 76.357714353770788, 18.530994719046202 ], [ 76.357252606881687, 18.530994719046202 ], [ 76.357285850600519, 18.531435999794073 ], [ 76.357660614159826, 18.531454701469418 ] ] ] } },
{ "type": "Feature", "properties": { "id": "PRCL_0001", "class": "parcel", "confidence": 0.9, "area_sqm": 2284.46, "perimeter_m": 192.63, "length_m": 55.39, "width_m": 44.7, "buildings_count": 1 }, "geometry": { "type": "Polygon", "coordinates": [ [ [ 76.356799150159318, 18.531492515122057 ], [ 76.356799150159318, 18.531835159891099 ], [ 76.356843407796063, 18.531835384290858 ], [ 76.357179257619535, 18.531837087152191 ], [ 76.357182730785624, 18.531837087152191 ], [ 76.35729839494816, 18.531837087152191 ], [ 76.357265940809896, 18.531457574028639 ], [ 76.356799150159318, 18.531492515122057 ] ] ] } },
{ "type": "Feature", "properties": { "id": "PRCL_0007", "class": "parcel", "confidence": 0.9, "area_sqm": 2232.84, "perimeter_m": 187.81, "length_m": 48.53, "width_m": 47.1, "buildings_count": 1 }, "geometry": { "type": "Polygon", "coordinates": [ [ [ 76.358167244574673, 18.53142379322454 ], [ 76.357773754327539, 18.53143267626184 ], [ 76.357774609527553, 18.531826752504777 ], [ 76.357775496679778, 18.531826750718892 ], [ 76.35777551982568, 18.531837087152191 ], [ 76.358197737225169, 18.531837087152191 ], [ 76.358187384141502, 18.531444436812453 ], [ 76.358167244574673, 18.53142379322454 ] ] ] } },
{ "type": "Feature", "properties": { "id": "PRCL_0013", "class": "parcel", "confidence": 0.9, "area_sqm": 2037.36, "perimeter_m": 181.84, "length_m": 51.79, "width_m": 40.21, "buildings_count": 1 }, "geometry": { "type": "Polygon", "coordinates": [ [ [ 76.356799150159318, 18.532315896101547 ], [ 76.356799150159318, 18.532739072260647 ], [ 76.357160318596016, 18.532739072260647 ], [ 76.357160272950111, 18.532717822360837 ], [ 76.357159370979232, 18.53229792023728 ], [ 76.356799150159318, 18.532315896101547 ] ] ] } },
{ "type": "Feature", "properties": { "id": "PRCL_0004", "class": "parcel", "confidence": 0.9, "area_sqm": 2035.31, "perimeter_m": 181.87, "length_m": 50.99, "width_m": 41.4, "buildings_count": 1 }, "geometry": { "type": "Polygon", "coordinates": [ [ [ 76.357660725935247, 18.531922260642631 ], [ 76.357223813739665, 18.531922260642631 ], [ 76.357223812458699, 18.531922487767016 ], [ 76.35720348016919, 18.53192238467614 ], [ 76.357204185593901, 18.532250787806955 ], [ 76.35766151553517, 18.53227487753033 ], [ 76.357660725935247, 18.531922260642631 ] ] ] } },
{ "type": "Feature", "properties": { "id": "PRCL_0008", "class": "parcel", "confidence": 0.9, "area_sqm": 1941.77, "perimeter_m": 175.16, "length_m": 47.18, "width_m": 43.94, "buildings_count": 1 }, "geometry": { "type": "Polygon", "coordinates": [ [ [ 76.357660535210144, 18.531837087152191 ], [ 76.357660512582569, 18.531826982187805 ], [ 76.357661422056594, 18.531826980356986 ], [ 76.357660614159826, 18.531454701469418 ], [ 76.357285850600519, 18.531435999794073 ], [ 76.357265940809896, 18.531457574028639 ], [ 76.35729839494816, 18.531837087152191 ], [ 76.357660535210144, 18.531837087152191 ] ] ] } },
{ "type": "Feature", "properties": { "id": "PRCL_0014", "class": "parcel", "confidence": 0.9, "area_sqm": 1813.66, "perimeter_m": 170.74, "length_m": 46.44, "width_m": 40.1, "buildings_count": 1 }, "geometry": { "type": "Polygon", "coordinates": [ [ [ 76.357158564045392, 18.531922260642631 ], [ 76.357137815021417, 18.531922260642631 ], [ 76.357137815021417, 18.531922051733922 ], [ 76.356799150159318, 18.531920334600333 ], [ 76.356799150159318, 18.532315896101547 ], [ 76.357159370979232, 18.53229792023728 ], [ 76.357158564045392, 18.531922260642631 ] ] ] } }
]
}
