{
"type": "FeatureCollection",
"name": "roads",
"crs": { "type": "name", "properties": { "name": "urn:ogc:def:crs:OGC:1.3:CRS84" } },
"features": [
{ "type": "Feature", "properties": { "id": "RD_0001", "class": "road", "confidence": 0.88, "length_m": 98.2, "width_m": 5.0 }, "geometry": { "type": "LineString", "coordinates": [ [ 76.357182730785624, 18.532717778993778 ], [ 76.357180934155068, 18.531881377372514 ] ] } },
{ "type": "Feature", "properties": { "id": "RD_0002", "class": "road", "confidence": 0.88, "length_m": 59.4, "width_m": 10.0 }, "geometry": { "type": "LineString", "coordinates": [ [ 76.357182730785624, 18.531879673902719 ], [ 76.357716330064406, 18.531879673902719 ] ] } },
{ "type": "Feature", "properties": { "id": "RD_0003", "class": "road", "confidence": 0.88, "length_m": 94.2, "width_m": 12.8 }, "geometry": { "type": "LineString", "coordinates": [ [ 76.357719923325547, 18.532683709761269 ], [ 76.357718126694991, 18.531881377372514 ] ] } },
{ "type": "Feature", "properties": { "id": "RD_0004", "class": "road", "confidence": 0.88, "length_m": 97.2, "width_m": 12.6 }, "geometry": { "type": "LineString", "coordinates": [ [ 76.357718126694991, 18.531877970432898 ], [ 76.357716330064406, 18.531050082092658 ] ] } },
{ "type": "Feature", "properties": { "id": "RD_0005", "class": "road", "confidence": 0.88, "length_m": 37.4, "width_m": 10.0 }, "geometry": { "type": "LineString", "coordinates": [ [ 76.357179137524511, 18.531879673902719 ], [ 76.356843167608247, 18.531877970432898 ] ] } },
{ "type": "Feature", "properties": { "id": "RD_0006", "class": "road", "confidence": 0.88, "length_m": 97.2, "width_m": 10.0 }, "geometry": { "type": "LineString", "coordinates": [ [ 76.358593085781706, 18.531879673902719 ], [ 76.357719923325547, 18.531879673902719 ] ] } }
]
}
