{
"type": "FeatureCollection",
"name": "gnss_survey_pegs",
"crs": { "type": "name", "properties": { "name": "urn:ogc:def:crs:OGC:1.3:CRS84" } },
"features": [
{ "type": "Feature", "properties": { "id": "PEG_001", "type": "boundary_marker" }, "geometry": { "type": "Point", "coordinates": [ 76.356916829461539, 18.532593426262274 ] } },
{ "type": "Feature", "properties": { "id": "PEG_002", "type": "boundary_marker" }, "geometry": { "type": "Point", "coordinates": [ 76.357150391435411, 18.532337906667006 ] } },
{ "type": "Feature", "properties": { "id": "PEG_003", "type": "boundary_marker" }, "geometry": { "type": "Point", "coordinates": [ 76.356898863155863, 18.53228680270211 ] } },
{ "type": "Feature", "properties": { "id": "PEG_004", "type": "boundary_marker" }, "geometry": { "type": "Point", "coordinates": [ 76.35713242512972, 18.531997213279102 ] } },
{ "type": "Feature", "properties": { "id": "PEG_005", "type": "boundary_marker" }, "geometry": { "type": "Point", "coordinates": [ 76.35724022296381, 18.532559357004974 ] } },
{ "type": "Feature", "properties": { "id": "PEG_006", "type": "boundary_marker" }, "geometry": { "type": "Point", "coordinates": [ 76.357581582771786, 18.532269768043754 ] } },
{ "type": "Feature", "properties": { "id": "PEG_007", "type": "boundary_marker" }, "geometry": { "type": "Point", "coordinates": [ 76.357258189269501, 18.532235698721944 ] } },
{ "type": "Feature", "properties": { "id": "PEG_008", "type": "boundary_marker" }, "geometry": { "type": "Point", "coordinates": [ 76.357599549077463, 18.531980178591883 ] } },
{ "type": "Feature", "properties": { "id": "PEG_009", "type": "boundary_marker" }, "geometry": { "type": "Point", "coordinates": [ 76.356952762072908, 18.531775762212796 ] } },
{ "type": "Feature", "properties": { "id": "PEG_010", "type": "boundary_marker" }, "geometry": { "type": "Point", "coordinates": [ 76.357276155575178, 18.531486171923941 ] } },
{ "type": "Feature", "properties": { "id": "PEG_011", "type": "boundary_marker" }, "geometry": { "type": "Point", "coordinates": [ 76.356934795767216, 18.531469137185791 ] } },
{ "type": "Feature", "properties": { "id": "PEG_012", "type": "boundary_marker" }, "geometry": { "type": "Point", "coordinates": [ 76.35724022296381, 18.531145476838319 ] } },
{ "type": "Feature", "properties": { "id": "PEG_013", "type": "boundary_marker" }, "geometry": { "type": "Point", "coordinates": [ 76.357294121880855, 18.531758727503508 ] } },
{ "type": "Feature", "properties": { "id": "PEG_014", "type": "boundary_marker" }, "geometry": { "type": "Point", "coordinates": [ 76.357599549077463, 18.53145210244594 ] } },
{ "type": "Feature", "properties": { "id": "PEG_015", "type": "boundary_marker" }, "geometry": { "type": "Point", "coordinates": [ 76.357312088186546, 18.53143506770439 ] } },
{ "type": "Feature", "properties": { "id": "PEG_016", "type": "boundary_marker" }, "geometry": { "type": "Point", "coordinates": [ 76.357617515383154, 18.531128442066215 ] } },
{ "type": "Feature", "properties": { "id": "PEG_017", "type": "boundary_marker" }, "geometry": { "type": "Point", "coordinates": [ 76.357815144745658, 18.532559357004974 ] } },
{ "type": "Feature", "properties": { "id": "PEG_018", "type": "boundary_marker" }, "geometry": { "type": "Point", "coordinates": [ 76.358120571942251, 18.532235698721944 ] } },
{ "type": "Feature", "properties": { "id": "PEG_019", "type": "boundary_marker" }, "geometry": { "type": "Point", "coordinates": [ 76.357851077357012, 18.532201629393334 ] } },
{ "type": "Feature", "properties": { "id": "PEG_020", "type": "boundary_marker" }, "geometry": { "type": "Point", "coordinates": [ 76.358174470859311, 18.531963143902964 ] } },
{ "type": "Feature", "properties": { "id": "PEG_021", "type": "boundary_marker" }, "geometry": { "type": "Point", "coordinates": [ 76.357833111051335, 18.531775762212796 ] } },
{ "type": "Feature", "properties": { "id": "PEG_022", "type": "boundary_marker" }, "geometry": { "type": "Point", "coordinates": [ 76.358192437164988, 18.53143506770439 ] } },
{ "type": "Feature", "properties": { "id": "PEG_023", "type": "boundary_marker" }, "geometry": { "type": "Point", "coordinates": [ 76.357851077357012, 18.531400998216203 ] } },
{ "type": "Feature", "properties": { "id": "PEG_024", "type": "boundary_marker" }, "geometry": { "type": "Point", "coordinates": [ 76.358156504553619, 18.531094372516907 ] } },
{ "type": "Feature", "properties": { "id": "PEG_025", "type": "boundary_marker" }, "geometry": { "type": "Point", "coordinates": [ 76.358210403470665, 18.531741692792515 ] } },
{ "type": "Feature", "properties": { "id": "PEG_026", "type": "boundary_marker" }, "geometry": { "type": "Point", "coordinates": [ 76.358533796972949, 18.53145210244594 ] } },
{ "type": "Feature", "properties": { "id": "PEG_027", "type": "boundary_marker" }, "geometry": { "type": "Point", "coordinates": [ 76.358228369776356, 18.53143506770439 ] } },
{ "type": "Feature", "properties": { "id": "PEG_028", "type": "boundary_marker" }, "geometry": { "type": "Point", "coordinates": [ 76.358515830667272, 18.531145476838319 ] } }
]
}
